{"type": "FeatureCollection", "features": [{"type": "Feature", "geometry": {"type": "Point", "coordinates": [9.1817789, 45.4677208]}, "properties": {"id": 7980051, "feat_type": "way", "quality_categories": "keys_without_wiki, uncanny_keys", "issue_ids": "[0, 1]", "osm_url": "https://www.openstreetmap.org/way/7980051", "josm_url": "http://127.0.0.1:8111/load_object?new_layer=false&objects=w7980051", "id_url": "https://www.openstreetmap.org/edit?editor=id&way=7980051#map=20/45.4677208/9.1817789"}}, {"type": "Feature", "geometry": {"type": "Point", "coordinates": [9.2024571, 45.4292112]}, "properties": {"id": 134765959, "feat_type": "way", "quality_categories": "keys_without_wiki, missing_tags, uncanny_keys", "issue_ids": "[2, 3, 4]", "osm_url": "https://www.openstreetmap.org/way/134765959", "josm_url": "http://127.0.0.1:8111/load_object?new_layer=false&objects=w134765959", "id_url": "https://www.openstreetmap.org/edit?editor=id&way=134765959#map=20/45.4292112/9.2024571"}}, {"type": "Feature", "geometry": {"type": "Point", "coordinates": [9.1946012, 45.4628757]}, "properties": {"id": 134765971, "feat_type": "way", "quality_categories": "keys_without_wiki, missing_tags, uncanny_keys", "issue_ids": "[5, 3, 4]", "osm_url": "https://www.openstreetmap.org/way/134765971", "josm_url": "http://127.0.0.1:8111/load_object?new_layer=false&objects=w134765971", "id_url": "https://www.openstreetmap.org/edit?editor=id&way=134765971#map=20/45.4628757/9.1946012"}}, {"type": "Feature", "geometry": {"type": "Point", "coordinates": [9.2023375, 45.429196]}, "properties": {"id": 134765978, "feat_type": "way", "quality_categories": "keys_without_wiki, missing_tags, uncanny_keys", "issue_ids": "[2, 3, 4]", "osm_url": "https://www.openstreetmap.org/way/134765978", "josm_url": "http://127.0.0.1:8111/load_object?new_layer=false&objects=w134765978", "id_url": "https://www.openstreetmap.org/edit?editor=id&way=134765978#map=20/45.429196/9.2023375"}}, {"type": "Feature", "geometry": {"type": "Point", "coordinates": [9.197786, 45.4780422]}, "properties": {"id": 221328705, "feat_type": "way", "quality_categories": "keys_without_wiki, uncanny_keys", "issue_ids": "[6, 3]", "osm_url": "https://www.openstreetmap.org/way/221328705", "josm_url": "http://127.0.0.1:8111/load_object?new_layer=false&objects=w221328705", "id_url": "https://www.openstreetmap.org/edit?editor=id&way=221328705#map=20/45.4780422/9.197786"}}, {"type": "Feature", "geometry": {"type": "Point", "coordinates": [9.1974648, 45.4781003]}, "properties": {"id": 221328707, "feat_type": "way", "quality_categories": "keys_without_wiki", "issue_ids": "[3]", "osm_url": "https://www.openstreetmap.org/way/221328707", "josm_url": "http://127.0.0.1:8111/load_object?new_layer=false&objects=w221328707", "id_url": "https://www.openstreetmap.org/edit?editor=id&way=221328707#map=20/45.4781003/9.1974648"}}, {"type": "Feature", "geometry": {"type": "Point", "coordinates": [9.1573328, 45.4943003]}, "properties": {"id": 244136156, "feat_type": "way", "quality_categories": "keys_without_wiki, missing_tags, uncanny_keys", "issue_ids": "[7, 3, 4]", "osm_url": "https://www.openstreetmap.org/way/244136156", "josm_url": "http://127.0.0.1:8111/load_object?new_layer=false&objects=w244136156", "id_url": "https://www.openstreetmap.org/edit?editor=id&way=244136156#map=20/45.4943003/9.1573328"}}, {"type": "Feature", "geometry": {"type": "Point", "coordinates": [9.2016703, 45.4762712]}, "properties": {"id": 246921211, "feat_type": "way", "quality_categories": "keys_without_wiki, uncanny_keys", "issue_ids": "[8, 3]", "osm_url": "https://www.openstreetmap.org/way/246921211", "josm_url": "http://127.0.0.1:8111/load_object?new_layer=false&objects=w246921211", "id_url": "https://www.openstreetmap.org/edit?editor=id&way=246921211#map=20/45.4762712/9.2016703"}}, {"type": "Feature", "geometry": {"type": "Point", "coordinates": [9.206484, 45.4821772]}, "properties": {"id": 248095777, "feat_type": "way", "quality_categories": "keys_without_wiki, uncanny_keys", "issue_ids": "[9, 3]", "osm_url": "https://www.openstreetmap.org/way/248095777", "josm_url": "http://127.0.0.1:8111/load_object?new_layer=false&objects=w248095777", "id_url": "https://www.openstreetmap.org/edit?editor=id&way=248095777#map=20/45.4821772/9.206484"}}, {"type": "Feature", "geometry": {"type": "Point", "coordinates": [9.2074911, 45.4627429]}, "properties": {"id": 249061178, "feat_type": "way", "quality_categories": "keys_without_wiki", "issue_ids": "[3]", "osm_url": "https://www.openstreetmap.org/way/249061178", "josm_url": "http://127.0.0.1:8111/load_object?new_layer=false&objects=w249061178", "id_url": "https://www.openstreetmap.org/edit?editor=id&way=249061178#map=20/45.4627429/9.2074911"}}, {"type": "Feature", "geometry": {"type": "Point", "coordinates": [9.162253, 45.4762362]}, "properties": {"id": 250515941, "feat_type": "way", "quality_categories": "keys_without_wiki, uncanny_keys", "issue_ids": "[10, 3]", "osm_url": "https://www.openstreetmap.org/way/250515941", "josm_url": "http://127.0.0.1:8111/load_object?new_layer=false&objects=w250515941", "id_url": "https://www.openstreetmap.org/edit?editor=id&way=250515941#map=20/45.4762362/9.162253"}}, {"type": "Feature", "geometry": {"type": "Point", "coordinates": [9.1642244, 45.4746366]}, "properties": {"id": 250515942, "feat_type": "way", "quality_categories": "keys_without_wiki, uncanny_keys", "issue_ids": "[11, 3]", "osm_url": "https://www.openstreetmap.org/way/250515942", "josm_url": "http://127.0.0.1:8111/load_object?new_layer=false&objects=w250515942", "id_url": "https://www.openstreetmap.org/edit?editor=id&way=250515942#map=20/45.4746366/9.1642244"}}, {"type": "Feature", "geometry": {"type": "Point", "coordinates": [9.221015, 45.4718973]}, "properties": {"id": 251311898, "feat_type": "way", "quality_categories": "keys_without_wiki, missing_tags, uncanny_keys", "issue_ids": "[12, 3, 4]", "osm_url": "https://www.openstreetmap.org/way/251311898", "josm_url": "http://127.0.0.1:8111/load_object?new_layer=false&objects=w251311898", "id_url": "https://www.openstreetmap.org/edit?editor=id&way=251311898#map=20/45.4718973/9.221015"}}, {"type": "Feature", "geometry": {"type": "Point", "coordinates": [9.194668, 45.4628117]}, "properties": {"id": 251614623, "feat_type": "way", "quality_categories": "keys_without_wiki, missing_tags, uncanny_keys", "issue_ids": "[5, 3, 4]", "osm_url": "https://www.openstreetmap.org/way/251614623", "josm_url": "http://127.0.0.1:8111/load_object?new_layer=false&objects=w251614623", "id_url": "https://www.openstreetmap.org/edit?editor=id&way=251614623#map=20/45.4628117/9.194668"}}, {"type": "Feature", "geometry": {"type": "Point", "coordinates": [9.1923102, 45.4583257]}, "properties": {"id": 251948698, "feat_type": "way", "quality_categories": "keys_without_wiki, uncanny_keys", "issue_ids": "[13, 3]", "osm_url": "https://www.openstreetmap.org/way/251948698", "josm_url": "http://127.0.0.1:8111/load_object?new_layer=false&objects=w251948698", "id_url": "https://www.openstreetmap.org/edit?editor=id&way=251948698#map=20/45.4583257/9.1923102"}}, {"type": "Feature", "geometry": {"type": "Point", "coordinates": [9.1253996, 45.5139288]}, "properties": {"id": 256998634, "feat_type": "way", "quality_categories": "keys_without_wiki, missing_tags", "issue_ids": "[3, 4]", "osm_url": "https://www.openstreetmap.org/way/256998634", "josm_url": "http://127.0.0.1:8111/load_object?new_layer=false&objects=w256998634", "id_url": "https://www.openstreetmap.org/edit?editor=id&way=256998634#map=20/45.5139288/9.1253996"}}, {"type": "Feature", "geometry": {"type": "Point", "coordinates": [9.2032884, 45.4622735]}, "properties": {"id": 290573363, "feat_type": "way", "quality_categories": "keys_without_wiki", "issue_ids": "[3]", "osm_url": "https://www.openstreetmap.org/way/290573363", "josm_url": "http://127.0.0.1:8111/load_object?new_layer=false&objects=w290573363", "id_url": "https://www.openstreetmap.org/edit?editor=id&way=290573363#map=20/45.4622735/9.2032884"}}, {"type": "Feature", "geometry": {"type": "Point", "coordinates": [9.200791, 45.4623121]}, "properties": {"id": 290573364, "feat_type": "way", "quality_categories": "keys_without_wiki", "issue_ids": "[3]", "osm_url": "https://www.openstreetmap.org/way/290573364", "josm_url": "http://127.0.0.1:8111/load_object?new_layer=false&objects=w290573364", "id_url": "https://www.openstreetmap.org/edit?editor=id&way=290573364#map=20/45.4623121/9.200791"}}, {"type": "Feature", "geometry": {"type": "Point", "coordinates": [9.1999003, 45.4623807]}, "properties": {"id": 290573365, "feat_type": "way", "quality_categories": "keys_without_wiki", "issue_ids": "[3]", "osm_url": "https://www.openstreetmap.org/way/290573365", "josm_url": "http://127.0.0.1:8111/load_object?new_layer=false&objects=w290573365", "id_url": "https://www.openstreetmap.org/edit?editor=id&way=290573365#map=20/45.4623807/9.1999003"}}, {"type": "Feature", "geometry": {"type": "Point", "coordinates": [9.2032905, 45.4623367]}, "properties": {"id": 355514651, "feat_type": "way", "quality_categories": "keys_without_wiki, uncanny_keys", "issue_ids": "[14, 3]", "osm_url": "https://www.openstreetmap.org/way/355514651", "josm_url": "http://127.0.0.1:8111/load_object?new_layer=false&objects=w355514651", "id_url": "https://www.openstreetmap.org/edit?editor=id&way=355514651#map=20/45.4623367/9.2032905"}}, {"type": "Feature", "geometry": {"type": "Point", "coordinates": [9.2142734, 45.473219]}, "properties": {"id": 355519433, "feat_type": "way", "quality_categories": "keys_without_wiki, missing_tags, uncanny_keys", "issue_ids": "[15, 3, 4]", "osm_url": "https://www.openstreetmap.org/way/355519433", "josm_url": "http://127.0.0.1:8111/load_object?new_layer=false&objects=w355519433", "id_url": "https://www.openstreetmap.org/edit?editor=id&way=355519433#map=20/45.473219/9.2142734"}}, {"type": "Feature", "geometry": {"type": "Point", "coordinates": [9.2107135, 45.4748408]}, "properties": {"id": 355519434, "feat_type": "way", "quality_categories": "keys_without_wiki, missing_tags, uncanny_keys", "issue_ids": "[16, 3, 4]", "osm_url": "https://www.openstreetmap.org/way/355519434", "josm_url": "http://127.0.0.1:8111/load_object?new_layer=false&objects=w355519434", "id_url": "https://www.openstreetmap.org/edit?editor=id&way=355519434#map=20/45.4748408/9.2107135"}}, {"type": "Feature", "geometry": {"type": "Point", "coordinates": [9.2174664, 45.4619537]}, "properties": {"id": 365338690, "feat_type": "way", "quality_categories": "keys_without_wiki, missing_tags", "issue_ids": "[3, 4]", "osm_url": "https://www.openstreetmap.org/way/365338690", "josm_url": "http://127.0.0.1:8111/load_object?new_layer=false&objects=w365338690", "id_url": "https://www.openstreetmap.org/edit?editor=id&way=365338690#map=20/45.4619537/9.2174664"}}, {"type": "Feature", "geometry": {"type": "Point", "coordinates": [9.2173188, 45.4619329]}, "properties": {"id": 365338691, "feat_type": "way", "quality_categories": "keys_without_wiki, missing_tags", "issue_ids": "[3, 4]", "osm_url": "https://www.openstreetmap.org/way/365338691", "josm_url": "http://127.0.0.1:8111/load_object?new_layer=false&objects=w365338691", "id_url": "https://www.openstreetmap.org/edit?editor=id&way=365338691#map=20/45.4619329/9.2173188"}}, {"type": "Feature", "geometry": {"type": "Point", "coordinates": [9.1293115, 45.476044]}, "properties": {"id": 369247971, "feat_type": "way", "quality_categories": "keys_without_wiki, uncanny_keys", "issue_ids": "[17, 3]", "osm_url": "https://www.openstreetmap.org/way/369247971", "josm_url": "http://127.0.0.1:8111/load_object?new_layer=false&objects=w369247971", "id_url": "https://www.openstreetmap.org/edit?editor=id&way=369247971#map=20/45.476044/9.1293115"}}, {"type": "Feature", "geometry": {"type": "Point", "coordinates": [9.1293161, 45.4761163]}, "properties": {"id": 369247983, "feat_type": "way", "quality_categories": "keys_without_wiki, uncanny_keys", "issue_ids": "[17, 3]", "osm_url": "https://www.openstreetmap.org/way/369247983", "josm_url": "http://127.0.0.1:8111/load_object?new_layer=false&objects=w369247983", "id_url": "https://www.openstreetmap.org/edit?editor=id&way=369247983#map=20/45.4761163/9.1293161"}}, {"type": "Feature", "geometry": {"type": "Point", "coordinates": [9.1322596, 45.4760795]}, "properties": {"id": 369249535, "feat_type": "way", "quality_categories": "keys_without_wiki, uncanny_keys", "issue_ids": "[18, 3]", "osm_url": "https://www.openstreetmap.org/way/369249535", "josm_url": "http://127.0.0.1:8111/load_object?new_layer=false&objects=w369249535", "id_url": "https://www.openstreetmap.org/edit?editor=id&way=369249535#map=20/45.4760795/9.1322596"}}, {"type": "Feature", "geometry": {"type": "Point", "coordinates": [9.1975542, 45.494792]}, "properties": {"id": 369348851, "feat_type": "way", "quality_categories": "keys_without_wiki, missing_tags, uncanny_keys", "issue_ids": "[19, 3, 4]", "osm_url": "https://www.openstreetmap.org/way/369348851", "josm_url": "http://127.0.0.1:8111/load_object?new_layer=false&objects=w369348851", "id_url": "https://www.openstreetmap.org/edit?editor=id&way=369348851#map=20/45.494792/9.1975542"}}, {"type": "Feature", "geometry": {"type": "Point", "coordinates": [9.1974269, 45.4947356]}, "properties": {"id": 369348854, "feat_type": "way", "quality_categories": "keys_without_wiki, missing_tags, uncanny_keys", "issue_ids": "[19, 3, 4]", "osm_url": "https://www.openstreetmap.org/way/369348854", "josm_url": "http://127.0.0.1:8111/load_object?new_layer=false&objects=w369348854", "id_url": "https://www.openstreetmap.org/edit?editor=id&way=369348854#map=20/45.4947356/9.1974269"}}, {"type": "Feature", "geometry": {"type": "Point", "coordinates": [9.2069254, 45.4681499]}, "properties": {"id": 386386540, "feat_type": "way", "quality_categories": "keys_without_wiki, uncanny_keys", "issue_ids": "[20, 3]", "osm_url": "https://www.openstreetmap.org/way/386386540", "josm_url": "http://127.0.0.1:8111/load_object?new_layer=false&objects=w386386540", "id_url": "https://www.openstreetmap.org/edit?editor=id&way=386386540#map=20/45.4681499/9.2069254"}}, {"type": "Feature", "geometry": {"type": "Point", "coordinates": [9.1846594, 45.4455812]}, "properties": {"id": 403676483, "feat_type": "way", "quality_categories": "keys_without_wiki", "issue_ids": "[3]", "osm_url": "https://www.openstreetmap.org/way/403676483", "josm_url": "http://127.0.0.1:8111/load_object?new_layer=false&objects=w403676483", "id_url": "https://www.openstreetmap.org/edit?editor=id&way=403676483#map=20/45.4455812/9.1846594"}}, {"type": "Feature", "geometry": {"type": "Point", "coordinates": [9.1572413, 45.4878443]}, "properties": {"id": 405874034, "feat_type": "way", "quality_categories": "keys_without_wiki", "issue_ids": "[3]", "osm_url": "https://www.openstreetmap.org/way/405874034", "josm_url": "http://127.0.0.1:8111/load_object?new_layer=false&objects=w405874034", "id_url": "https://www.openstreetmap.org/edit?editor=id&way=405874034#map=20/45.4878443/9.1572413"}}, {"type": "Feature", "geometry": {"type": "Point", "coordinates": [9.1570682, 45.4879171]}, "properties": {"id": 405874035, "feat_type": "way", "quality_categories": "keys_without_wiki", "issue_ids": "[3]", "osm_url": "https://www.openstreetmap.org/way/405874035", "josm_url": "http://127.0.0.1:8111/load_object?new_layer=false&objects=w405874035", "id_url": "https://www.openstreetmap.org/edit?editor=id&way=405874035#map=20/45.4879171/9.1570682"}}, {"type": "Feature", "geometry": {"type": "Point", "coordinates": [9.1579666, 45.4939494]}, "properties": {"id": 405879026, "feat_type": "way", "quality_categories": "keys_without_wiki, missing_tags, uncanny_keys", "issue_ids": "[7, 3, 4]", "osm_url": "https://www.openstreetmap.org/way/405879026", "josm_url": "http://127.0.0.1:8111/load_object?new_layer=false&objects=w405879026", "id_url": "https://www.openstreetmap.org/edit?editor=id&way=405879026#map=20/45.4939494/9.1579666"}}, {"type": "Feature", "geometry": {"type": "Point", "coordinates": [9.1937911, 45.4710088]}, "properties": {"id": 497381143, "feat_type": "way", "quality_categories": "keys_without_wiki", "issue_ids": "[3]", "osm_url": "https://www.openstreetmap.org/way/497381143", "josm_url": "http://127.0.0.1:8111/load_object?new_layer=false&objects=w497381143", "id_url": "https://www.openstreetmap.org/edit?editor=id&way=497381143#map=20/45.4710088/9.1937911"}}, {"type": "Feature", "geometry": {"type": "Point", "coordinates": [9.16177, 45.481365]}, "properties": {"id": 502595519, "feat_type": "way", "quality_categories": "keys_without_wiki, uncanny_keys", "issue_ids": "[21, 3]", "osm_url": "https://www.openstreetmap.org/way/502595519", "josm_url": "http://127.0.0.1:8111/load_object?new_layer=false&objects=w502595519", "id_url": "https://www.openstreetmap.org/edit?editor=id&way=502595519#map=20/45.481365/9.16177"}}, {"type": "Feature", "geometry": {"type": "Point", "coordinates": [9.2069516, 45.461771]}, "properties": {"id": 663470114, "feat_type": "way", "quality_categories": "keys_without_wiki, uncanny_keys", "issue_ids": "[22, 3]", "osm_url": "https://www.openstreetmap.org/way/663470114", "josm_url": "http://127.0.0.1:8111/load_object?new_layer=false&objects=w663470114", "id_url": "https://www.openstreetmap.org/edit?editor=id&way=663470114#map=20/45.461771/9.2069516"}}, {"type": "Feature", "geometry": {"type": "Point", "coordinates": [9.1753984, 45.4658663]}, "properties": {"id": 685672153, "feat_type": "way", "quality_categories": "keys_without_wiki, uncanny_keys", "issue_ids": "[23, 3]", "osm_url": "https://www.openstreetmap.org/way/685672153", "josm_url": "http://127.0.0.1:8111/load_object?new_layer=false&objects=w685672153", "id_url": "https://www.openstreetmap.org/edit?editor=id&way=685672153#map=20/45.4658663/9.1753984"}}, {"type": "Feature", "geometry": {"type": "Point", "coordinates": [9.1399235, 45.4744546]}, "properties": {"id": 689278414, "feat_type": "way", "quality_categories": "keys_without_wiki, uncanny_keys", "issue_ids": "[24, 3]", "osm_url": "https://www.openstreetmap.org/way/689278414", "josm_url": "http://127.0.0.1:8111/load_object?new_layer=false&objects=w689278414", "id_url": "https://www.openstreetmap.org/edit?editor=id&way=689278414#map=20/45.4744546/9.1399235"}}, {"type": "Feature", "geometry": {"type": "Point", "coordinates": [9.225589, 45.4768261]}, "properties": {"id": 941863455, "feat_type": "way", "quality_categories": "keys_without_wiki, uncanny_keys", "issue_ids": "[25, 3]", "osm_url": "https://www.openstreetmap.org/way/941863455", "josm_url": "http://127.0.0.1:8111/load_object?new_layer=false&objects=w941863455", "id_url": "https://www.openstreetmap.org/edit?editor=id&way=941863455#map=20/45.4768261/9.225589"}}, {"type": "Feature", "geometry": {"type": "Point", "coordinates": [9.2240356, 45.4762732]}, "properties": {"id": 941863456, "feat_type": "way", "quality_categories": "keys_without_wiki, uncanny_keys", "issue_ids": "[26, 3]", "osm_url": "https://www.openstreetmap.org/way/941863456", "josm_url": "http://127.0.0.1:8111/load_object?new_layer=false&objects=w941863456", "id_url": "https://www.openstreetmap.org/edit?editor=id&way=941863456#map=20/45.4762732/9.2240356"}}, {"type": "Feature", "geometry": {"type": "Point", "coordinates": [9.2233697, 45.4759309]}, "properties": {"id": 941863459, "feat_type": "way", "quality_categories": "keys_without_wiki, uncanny_keys", "issue_ids": "[26, 3]", "osm_url": "https://www.openstreetmap.org/way/941863459", "josm_url": "http://127.0.0.1:8111/load_object?new_layer=false&objects=w941863459", "id_url": "https://www.openstreetmap.org/edit?editor=id&way=941863459#map=20/45.4759309/9.2233697"}}, {"type": "Feature", "geometry": {"type": "Point", "coordinates": [9.2216007, 45.4752886]}, "properties": {"id": 941863463, "feat_type": "way", "quality_categories": "keys_without_wiki, uncanny_keys", "issue_ids": "[27, 3]", "osm_url": "https://www.openstreetmap.org/way/941863463", "josm_url": "http://127.0.0.1:8111/load_object?new_layer=false&objects=w941863463", "id_url": "https://www.openstreetmap.org/edit?editor=id&way=941863463#map=20/45.4752886/9.2216007"}}, {"type": "Feature", "geometry": {"type": "Point", "coordinates": [9.138626, 45.4755623]}, "properties": {"id": 1008845196, "feat_type": "way", "quality_categories": "keys_without_wiki, uncanny_keys", "issue_ids": "[28, 3]", "osm_url": "https://www.openstreetmap.org/way/1008845196", "josm_url": "http://127.0.0.1:8111/load_object?new_layer=false&objects=w1008845196", "id_url": "https://www.openstreetmap.org/edit?editor=id&way=1008845196#map=20/45.4755623/9.138626"}}, {"type": "Feature", "geometry": {"type": "Point", "coordinates": [9.124704, 45.4761688]}, "properties": {"id": 1026953270, "feat_type": "way", "quality_categories": "keys_without_wiki, uncanny_keys", "issue_ids": "[29, 3]", "osm_url": "https://www.openstreetmap.org/way/1026953270", "josm_url": "http://127.0.0.1:8111/load_object?new_layer=false&objects=w1026953270", "id_url": "https://www.openstreetmap.org/edit?editor=id&way=1026953270#map=20/45.4761688/9.124704"}}, {"type": "Feature", "geometry": {"type": "Point", "coordinates": [9.1430175, 45.4722095]}, "properties": {"id": 1026964047, "feat_type": "way", "quality_categories": "keys_without_wiki, uncanny_keys", "issue_ids": "[30, 3]", "osm_url": "https://www.openstreetmap.org/way/1026964047", "josm_url": "http://127.0.0.1:8111/load_object?new_layer=false&objects=w1026964047", "id_url": "https://www.openstreetmap.org/edit?editor=id&way=1026964047#map=20/45.4722095/9.1430175"}}, {"type": "Feature", "geometry": {"type": "Point", "coordinates": [9.1410575, 45.4736956]}, "properties": {"id": 1026964048, "feat_type": "way", "quality_categories": "keys_without_wiki, uncanny_keys", "issue_ids": "[24, 3]", "osm_url": "https://www.openstreetmap.org/way/1026964048", "josm_url": "http://127.0.0.1:8111/load_object?new_layer=false&objects=w1026964048", "id_url": "https://www.openstreetmap.org/edit?editor=id&way=1026964048#map=20/45.4736956/9.1410575"}}, {"type": "Feature", "geometry": {"type": "Point", "coordinates": [9.1700762, 45.4656544]}, "properties": {"id": 1027010855, "feat_type": "way", "quality_categories": "keys_without_wiki, uncanny_keys", "issue_ids": "[31, 3]", "osm_url": "https://www.openstreetmap.org/way/1027010855", "josm_url": "http://127.0.0.1:8111/load_object?new_layer=false&objects=w1027010855", "id_url": "https://www.openstreetmap.org/edit?editor=id&way=1027010855#map=20/45.4656544/9.1700762"}}, {"type": "Feature", "geometry": {"type": "Point", "coordinates": [9.1697622, 45.4657376]}, "properties": {"id": 1027010856, "feat_type": "way", "quality_categories": "keys_without_wiki, uncanny_keys", "issue_ids": "[31, 3]", "osm_url": "https://www.openstreetmap.org/way/1027010856", "josm_url": "http://127.0.0.1:8111/load_object?new_layer=false&objects=w1027010856", "id_url": "https://www.openstreetmap.org/edit?editor=id&way=1027010856#map=20/45.4657376/9.1697622"}}, {"type": "Feature", "geometry": {"type": "Point", "coordinates": [9.1856236, 45.4657547]}, "properties": {"id": 1027012088, "feat_type": "way", "quality_categories": "keys_without_wiki, uncanny_keys", "issue_ids": "[32, 3]", "osm_url": "https://www.openstreetmap.org/way/1027012088", "josm_url": "http://127.0.0.1:8111/load_object?new_layer=false&objects=w1027012088", "id_url": "https://www.openstreetmap.org/edit?editor=id&way=1027012088#map=20/45.4657547/9.1856236"}}, {"type": "Feature", "geometry": {"type": "Point", "coordinates": [9.1875073, 45.4643772]}, "properties": {"id": 1027013245, "feat_type": "way", "quality_categories": "keys_without_wiki", "issue_ids": "[3]", "osm_url": "https://www.openstreetmap.org/way/1027013245", "josm_url": "http://127.0.0.1:8111/load_object?new_layer=false&objects=w1027013245", "id_url": "https://www.openstreetmap.org/edit?editor=id&way=1027013245#map=20/45.4643772/9.1875073"}}, {"type": "Feature", "geometry": {"type": "Point", "coordinates": [9.1884471, 45.463029]}, "properties": {"id": 1027024994, "feat_type": "way", "quality_categories": "keys_without_wiki, uncanny_keys", "issue_ids": "[33, 3]", "osm_url": "https://www.openstreetmap.org/way/1027024994", "josm_url": "http://127.0.0.1:8111/load_object?new_layer=false&objects=w1027024994", "id_url": "https://www.openstreetmap.org/edit?editor=id&way=1027024994#map=20/45.463029/9.1884471"}}, {"type": "Feature", "geometry": {"type": "Point", "coordinates": [9.1885695, 45.4632524]}, "properties": {"id": 1027024996, "feat_type": "way", "quality_categories": "keys_without_wiki, uncanny_keys", "issue_ids": "[33, 3]", "osm_url": "https://www.openstreetmap.org/way/1027024996", "josm_url": "http://127.0.0.1:8111/load_object?new_layer=false&objects=w1027024996", "id_url": "https://www.openstreetmap.org/edit?editor=id&way=1027024996#map=20/45.4632524/9.1885695"}}, {"type": "Feature", "geometry": {"type": "Point", "coordinates": [9.206386, 45.4574813]}, "properties": {"id": 1027033815, "feat_type": "way", "quality_categories": "keys_without_wiki", "issue_ids": "[3]", "osm_url": "https://www.openstreetmap.org/way/1027033815", "josm_url": "http://127.0.0.1:8111/load_object?new_layer=false&objects=w1027033815", "id_url": "https://www.openstreetmap.org/edit?editor=id&way=1027033815#map=20/45.4574813/9.206386"}}, {"type": "Feature", "geometry": {"type": "Point", "coordinates": [9.206345, 45.4576228]}, "properties": {"id": 1027033816, "feat_type": "way", "quality_categories": "keys_without_wiki, uncanny_keys", "issue_ids": "[34, 3]", "osm_url": "https://www.openstreetmap.org/way/1027033816", "josm_url": "http://127.0.0.1:8111/load_object?new_layer=false&objects=w1027033816", "id_url": "https://www.openstreetmap.org/edit?editor=id&way=1027033816#map=20/45.4576228/9.206345"}}, {"type": "Feature", "geometry": {"type": "Point", "coordinates": [9.2034508, 45.4573401]}, "properties": {"id": 1027033818, "feat_type": "way", "quality_categories": "keys_without_wiki, uncanny_keys", "issue_ids": "[35, 3]", "osm_url": "https://www.openstreetmap.org/way/1027033818", "josm_url": "http://127.0.0.1:8111/load_object?new_layer=false&objects=w1027033818", "id_url": "https://www.openstreetmap.org/edit?editor=id&way=1027033818#map=20/45.4573401/9.2034508"}}, {"type": "Feature", "geometry": {"type": "Point", "coordinates": [9.1992653, 45.4566643]}, "properties": {"id": 1027033819, "feat_type": "way", "quality_categories": "keys_without_wiki", "issue_ids": "[3]", "osm_url": "https://www.openstreetmap.org/way/1027033819", "josm_url": "http://127.0.0.1:8111/load_object?new_layer=false&objects=w1027033819", "id_url": "https://www.openstreetmap.org/edit?editor=id&way=1027033819#map=20/45.4566643/9.1992653"}}, {"type": "Feature", "geometry": {"type": "Point", "coordinates": [9.1988653, 45.4565299]}, "properties": {"id": 1027033821, "feat_type": "way", "quality_categories": "keys_without_wiki", "issue_ids": "[3]", "osm_url": "https://www.openstreetmap.org/way/1027033821", "josm_url": "http://127.0.0.1:8111/load_object?new_layer=false&objects=w1027033821", "id_url": "https://www.openstreetmap.org/edit?editor=id&way=1027033821#map=20/45.4565299/9.1988653"}}, {"type": "Feature", "geometry": {"type": "Point", "coordinates": [9.195954, 45.4561364]}, "properties": {"id": 1027033826, "feat_type": "way", "quality_categories": "keys_without_wiki, uncanny_keys", "issue_ids": "[36, 3]", "osm_url": "https://www.openstreetmap.org/way/1027033826", "josm_url": "http://127.0.0.1:8111/load_object?new_layer=false&objects=w1027033826", "id_url": "https://www.openstreetmap.org/edit?editor=id&way=1027033826#map=20/45.4561364/9.195954"}}, {"type": "Feature", "geometry": {"type": "Point", "coordinates": [9.193093, 45.4577426]}, "properties": {"id": 1027033827, "feat_type": "way", "quality_categories": "keys_without_wiki, uncanny_keys", "issue_ids": "[37, 3]", "osm_url": "https://www.openstreetmap.org/way/1027033827", "josm_url": "http://127.0.0.1:8111/load_object?new_layer=false&objects=w1027033827", "id_url": "https://www.openstreetmap.org/edit?editor=id&way=1027033827#map=20/45.4577426/9.193093"}}, {"type": "Feature", "geometry": {"type": "Point", "coordinates": [9.2108801, 45.4556501]}, "properties": {"id": 1027040565, "feat_type": "way", "quality_categories": "keys_without_wiki", "issue_ids": "[3]", "osm_url": "https://www.openstreetmap.org/way/1027040565", "josm_url": "http://127.0.0.1:8111/load_object?new_layer=false&objects=w1027040565", "id_url": "https://www.openstreetmap.org/edit?editor=id&way=1027040565#map=20/45.4556501/9.2108801"}}, {"type": "Feature", "geometry": {"type": "Point", "coordinates": [9.2093054, 45.4564305]}, "properties": {"id": 1027040568, "feat_type": "way", "quality_categories": "keys_without_wiki", "issue_ids": "[3]", "osm_url": "https://www.openstreetmap.org/way/1027040568", "josm_url": "http://127.0.0.1:8111/load_object?new_layer=false&objects=w1027040568", "id_url": "https://www.openstreetmap.org/edit?editor=id&way=1027040568#map=20/45.4564305/9.2093054"}}, {"type": "Feature", "geometry": {"type": "Point", "coordinates": [9.2274696, 45.4517958]}, "properties": {"id": 1027047614, "feat_type": "way", "quality_categories": "keys_without_wiki, uncanny_keys", "issue_ids": "[38, 3]", "osm_url": "https://www.openstreetmap.org/way/1027047614", "josm_url": "http://127.0.0.1:8111/load_object?new_layer=false&objects=w1027047614", "id_url": "https://www.openstreetmap.org/edit?editor=id&way=1027047614#map=20/45.4517958/9.2274696"}}, {"type": "Feature", "geometry": {"type": "Point", "coordinates": [9.2289377, 45.4531193]}, "properties": {"id": 1027050237, "feat_type": "way", "quality_categories": "keys_without_wiki, uncanny_keys", "issue_ids": "[39, 3]", "osm_url": "https://www.openstreetmap.org/way/1027050237", "josm_url": "http://127.0.0.1:8111/load_object?new_layer=false&objects=w1027050237", "id_url": "https://www.openstreetmap.org/edit?editor=id&way=1027050237#map=20/45.4531193/9.2289377"}}, {"type": "Feature", "geometry": {"type": "Point", "coordinates": [9.1421796, 45.4727554]}, "properties": {"id": 1027054498, "feat_type": "way", "quality_categories": "keys_without_wiki, uncanny_keys", "issue_ids": "[30, 3]", "osm_url": "https://www.openstreetmap.org/way/1027054498", "josm_url": "http://127.0.0.1:8111/load_object?new_layer=false&objects=w1027054498", "id_url": "https://www.openstreetmap.org/edit?editor=id&way=1027054498#map=20/45.4727554/9.1421796"}}, {"type": "Feature", "geometry": {"type": "Point", "coordinates": [9.1383163, 45.4756862]}, "properties": {"id": 1027054500, "feat_type": "way", "quality_categories": "keys_without_wiki, uncanny_keys", "issue_ids": "[28, 3]", "osm_url": "https://www.openstreetmap.org/way/1027054500", "josm_url": "http://127.0.0.1:8111/load_object?new_layer=false&objects=w1027054500", "id_url": "https://www.openstreetmap.org/edit?editor=id&way=1027054500#map=20/45.4756862/9.1383163"}}, {"type": "Feature", "geometry": {"type": "Point", "coordinates": [9.1231682, 45.476121]}, "properties": {"id": 1027054501, "feat_type": "way", "quality_categories": "keys_without_wiki, uncanny_keys", "issue_ids": "[40, 3]", "osm_url": "https://www.openstreetmap.org/way/1027054501", "josm_url": "http://127.0.0.1:8111/load_object?new_layer=false&objects=w1027054501", "id_url": "https://www.openstreetmap.org/edit?editor=id&way=1027054501#map=20/45.476121/9.1231682"}}, {"type": "Feature", "geometry": {"type": "Point", "coordinates": [9.1565476, 45.4885191]}, "properties": {"id": 1027717375, "feat_type": "way", "quality_categories": "keys_without_wiki", "issue_ids": "[3]", "osm_url": "https://www.openstreetmap.org/way/1027717375", "josm_url": "http://127.0.0.1:8111/load_object?new_layer=false&objects=w1027717375", "id_url": "https://www.openstreetmap.org/edit?editor=id&way=1027717375#map=20/45.4885191/9.1565476"}}, {"type": "Feature", "geometry": {"type": "Point", "coordinates": [9.1563705, 45.4883266]}, "properties": {"id": 1027717377, "feat_type": "way", "quality_categories": "keys_without_wiki", "issue_ids": "[3]", "osm_url": "https://www.openstreetmap.org/way/1027717377", "josm_url": "http://127.0.0.1:8111/load_object?new_layer=false&objects=w1027717377", "id_url": "https://www.openstreetmap.org/edit?editor=id&way=1027717377#map=20/45.4883266/9.1563705"}}, {"type": "Feature", "geometry": {"type": "Point", "coordinates": [9.16021, 45.4800582]}, "properties": {"id": 1027917617, "feat_type": "way", "quality_categories": "keys_without_wiki", "issue_ids": "[3]", "osm_url": "https://www.openstreetmap.org/way/1027917617", "josm_url": "http://127.0.0.1:8111/load_object?new_layer=false&objects=w1027917617", "id_url": "https://www.openstreetmap.org/edit?editor=id&way=1027917617#map=20/45.4800582/9.16021"}}, {"type": "Feature", "geometry": {"type": "Point", "coordinates": [9.1602915, 45.4801034]}, "properties": {"id": 1027917618, "feat_type": "way", "quality_categories": "keys_without_wiki, uncanny_keys", "issue_ids": "[41, 3]", "osm_url": "https://www.openstreetmap.org/way/1027917618", "josm_url": "http://127.0.0.1:8111/load_object?new_layer=false&objects=w1027917618", "id_url": "https://www.openstreetmap.org/edit?editor=id&way=1027917618#map=20/45.4801034/9.1602915"}}, {"type": "Feature", "geometry": {"type": "Point", "coordinates": [9.1650204, 45.4742092]}, "properties": {"id": 1028076809, "feat_type": "way", "quality_categories": "keys_without_wiki, uncanny_keys", "issue_ids": "[11, 3]", "osm_url": "https://www.openstreetmap.org/way/1028076809", "josm_url": "http://127.0.0.1:8111/load_object?new_layer=false&objects=w1028076809", "id_url": "https://www.openstreetmap.org/edit?editor=id&way=1028076809#map=20/45.4742092/9.1650204"}}, {"type": "Feature", "geometry": {"type": "Point", "coordinates": [9.1667425, 45.4726292]}, "properties": {"id": 1028079187, "feat_type": "way", "quality_categories": "keys_without_wiki, uncanny_keys", "issue_ids": "[42, 3]", "osm_url": "https://www.openstreetmap.org/way/1028079187", "josm_url": "http://127.0.0.1:8111/load_object?new_layer=false&objects=w1028079187", "id_url": "https://www.openstreetmap.org/edit?editor=id&way=1028079187#map=20/45.4726292/9.1667425"}}, {"type": "Feature", "geometry": {"type": "Point", "coordinates": [9.1698187, 45.4703193]}, "properties": {"id": 1028079776, "feat_type": "way", "quality_categories": "keys_without_wiki", "issue_ids": "[3]", "osm_url": "https://www.openstreetmap.org/way/1028079776", "josm_url": "http://127.0.0.1:8111/load_object?new_layer=false&objects=w1028079776", "id_url": "https://www.openstreetmap.org/edit?editor=id&way=1028079776#map=20/45.4703193/9.1698187"}}, {"type": "Feature", "geometry": {"type": "Point", "coordinates": [9.1707604, 45.4698558]}, "properties": {"id": 1028081179, "feat_type": "way", "quality_categories": "keys_without_wiki", "issue_ids": "[3]", "osm_url": "https://www.openstreetmap.org/way/1028081179", "josm_url": "http://127.0.0.1:8111/load_object?new_layer=false&objects=w1028081179", "id_url": "https://www.openstreetmap.org/edit?editor=id&way=1028081179#map=20/45.4698558/9.1707604"}}, {"type": "Feature", "geometry": {"type": "Point", "coordinates": [9.1718464, 45.469043]}, "properties": {"id": 1028081687, "feat_type": "way", "quality_categories": "keys_without_wiki, missing_tags", "issue_ids": "[3, 4]", "osm_url": "https://www.openstreetmap.org/way/1028081687", "josm_url": "http://127.0.0.1:8111/load_object?new_layer=false&objects=w1028081687", "id_url": "https://www.openstreetmap.org/edit?editor=id&way=1028081687#map=20/45.469043/9.1718464"}}, {"type": "Feature", "geometry": {"type": "Point", "coordinates": [9.1729215, 45.4679462]}, "properties": {"id": 1028081689, "feat_type": "way", "quality_categories": "keys_without_wiki", "issue_ids": "[3]", "osm_url": "https://www.openstreetmap.org/way/1028081689", "josm_url": "http://127.0.0.1:8111/load_object?new_layer=false&objects=w1028081689", "id_url": "https://www.openstreetmap.org/edit?editor=id&way=1028081689#map=20/45.4679462/9.1729215"}}, {"type": "Feature", "geometry": {"type": "Point", "coordinates": [9.1737307, 45.4676036]}, "properties": {"id": 1028082012, "feat_type": "way", "quality_categories": "keys_without_wiki", "issue_ids": "[3]", "osm_url": "https://www.openstreetmap.org/way/1028082012", "josm_url": "http://127.0.0.1:8111/load_object?new_layer=false&objects=w1028082012", "id_url": "https://www.openstreetmap.org/edit?editor=id&way=1028082012#map=20/45.4676036/9.1737307"}}, {"type": "Feature", "geometry": {"type": "Point", "coordinates": [9.1761003, 45.4660529]}, "properties": {"id": 1028083243, "feat_type": "way", "quality_categories": "keys_without_wiki", "issue_ids": "[3]", "osm_url": "https://www.openstreetmap.org/way/1028083243", "josm_url": "http://127.0.0.1:8111/load_object?new_layer=false&objects=w1028083243", "id_url": "https://www.openstreetmap.org/edit?editor=id&way=1028083243#map=20/45.4660529/9.1761003"}}, {"type": "Feature", "geometry": {"type": "Point", "coordinates": [9.1907333, 45.460792]}, "properties": {"id": 1028094425, "feat_type": "way", "quality_categories": "keys_without_wiki, uncanny_keys", "issue_ids": "[43, 3]", "osm_url": "https://www.openstreetmap.org/way/1028094425", "josm_url": "http://127.0.0.1:8111/load_object?new_layer=false&objects=w1028094425", "id_url": "https://www.openstreetmap.org/edit?editor=id&way=1028094425#map=20/45.460792/9.1907333"}}, {"type": "Feature", "geometry": {"type": "Point", "coordinates": [9.1933901, 45.4621991]}, "properties": {"id": 1028095826, "feat_type": "way", "quality_categories": "keys_without_wiki", "issue_ids": "[3]", "osm_url": "https://www.openstreetmap.org/way/1028095826", "josm_url": "http://127.0.0.1:8111/load_object?new_layer=false&objects=w1028095826", "id_url": "https://www.openstreetmap.org/edit?editor=id&way=1028095826#map=20/45.4621991/9.1933901"}}, {"type": "Feature", "geometry": {"type": "Point", "coordinates": [9.2071693, 45.4720507]}, "properties": {"id": 1028104776, "feat_type": "way", "quality_categories": "keys_without_wiki, uncanny_keys", "issue_ids": "[44, 3]", "osm_url": "https://www.openstreetmap.org/way/1028104776", "josm_url": "http://127.0.0.1:8111/load_object?new_layer=false&objects=w1028104776", "id_url": "https://www.openstreetmap.org/edit?editor=id&way=1028104776#map=20/45.4720507/9.2071693"}}, {"type": "Feature", "geometry": {"type": "Point", "coordinates": [9.2067039, 45.4718362]}, "properties": {"id": 1028104777, "feat_type": "way", "quality_categories": "keys_without_wiki, uncanny_keys", "issue_ids": "[44, 3]", "osm_url": "https://www.openstreetmap.org/way/1028104777", "josm_url": "http://127.0.0.1:8111/load_object?new_layer=false&objects=w1028104777", "id_url": "https://www.openstreetmap.org/edit?editor=id&way=1028104777#map=20/45.4718362/9.2067039"}}, {"type": "Feature", "geometry": {"type": "Point", "coordinates": [9.2071445, 45.4673704]}, "properties": {"id": 1028104778, "feat_type": "way", "quality_categories": "keys_without_wiki, uncanny_keys", "issue_ids": "[20, 3]", "osm_url": "https://www.openstreetmap.org/way/1028104778", "josm_url": "http://127.0.0.1:8111/load_object?new_layer=false&objects=w1028104778", "id_url": "https://www.openstreetmap.org/edit?editor=id&way=1028104778#map=20/45.4673704/9.2071445"}}, {"type": "Feature", "geometry": {"type": "Point", "coordinates": [9.207359, 45.4651357]}, "properties": {"id": 1028104780, "feat_type": "way", "quality_categories": "keys_without_wiki, uncanny_keys", "issue_ids": "[45, 3]", "osm_url": "https://www.openstreetmap.org/way/1028104780", "josm_url": "http://127.0.0.1:8111/load_object?new_layer=false&objects=w1028104780", "id_url": "https://www.openstreetmap.org/edit?editor=id&way=1028104780#map=20/45.4651357/9.207359"}}, {"type": "Feature", "geometry": {"type": "Point", "coordinates": [9.2115379, 45.4724991]}, "properties": {"id": 1028106216, "feat_type": "way", "quality_categories": "keys_without_wiki, uncanny_keys", "issue_ids": "[46, 3]", "osm_url": "https://www.openstreetmap.org/way/1028106216", "josm_url": "http://127.0.0.1:8111/load_object?new_layer=false&objects=w1028106216", "id_url": "https://www.openstreetmap.org/edit?editor=id&way=1028106216#map=20/45.4724991/9.2115379"}}, {"type": "Feature", "geometry": {"type": "Point", "coordinates": [9.2110122, 45.472364]}, "properties": {"id": 1028106219, "feat_type": "way", "quality_categories": "keys_without_wiki, uncanny_keys", "issue_ids": "[46, 3]", "osm_url": "https://www.openstreetmap.org/way/1028106219", "josm_url": "http://127.0.0.1:8111/load_object?new_layer=false&objects=w1028106219", "id_url": "https://www.openstreetmap.org/edit?editor=id&way=1028106219#map=20/45.472364/9.2110122"}}, {"type": "Feature", "geometry": {"type": "Point", "coordinates": [9.1855632, 45.4615079]}, "properties": {"id": 1028924367, "feat_type": "way", "quality_categories": "keys_without_wiki, missing_tags", "issue_ids": "[3, 4]", "osm_url": "https://www.openstreetmap.org/way/1028924367", "josm_url": "http://127.0.0.1:8111/load_object?new_layer=false&objects=w1028924367", "id_url": "https://www.openstreetmap.org/edit?editor=id&way=1028924367#map=20/45.4615079/9.1855632"}}, {"type": "Feature", "geometry": {"type": "Point", "coordinates": [9.1856796, 45.461731]}, "properties": {"id": 1028950512, "feat_type": "way", "quality_categories": "keys_without_wiki", "issue_ids": "[3]", "osm_url": "https://www.openstreetmap.org/way/1028950512", "josm_url": "http://127.0.0.1:8111/load_object?new_layer=false&objects=w1028950512", "id_url": "https://www.openstreetmap.org/edit?editor=id&way=1028950512#map=20/45.461731/9.1856796"}}, {"type": "Feature", "geometry": {"type": "Point", "coordinates": [9.1833503, 45.4607783]}, "properties": {"id": 1048273910, "feat_type": "way", "quality_categories": "keys_without_wiki", "issue_ids": "[3]", "osm_url": "https://www.openstreetmap.org/way/1048273910", "josm_url": "http://127.0.0.1:8111/load_object?new_layer=false&objects=w1048273910", "id_url": "https://www.openstreetmap.org/edit?editor=id&way=1048273910#map=20/45.4607783/9.1833503"}}, {"type": "Feature", "geometry": {"type": "Point", "coordinates": [9.1870676, 45.4636603]}, "properties": {"id": 1065063342, "feat_type": "way", "quality_categories": "keys_without_wiki", "issue_ids": "[3]", "osm_url": "https://www.openstreetmap.org/way/1065063342", "josm_url": "http://127.0.0.1:8111/load_object?new_layer=false&objects=w1065063342", "id_url": "https://www.openstreetmap.org/edit?editor=id&way=1065063342#map=20/45.4636603/9.1870676"}}, {"type": "Feature", "geometry": {"type": "Point", "coordinates": [9.1317791, 45.4760034]}, "properties": {"id": 1065095113, "feat_type": "way", "quality_categories": "keys_without_wiki, uncanny_keys", "issue_ids": "[18, 3]", "osm_url": "https://www.openstreetmap.org/way/1065095113", "josm_url": "http://127.0.0.1:8111/load_object?new_layer=false&objects=w1065095113", "id_url": "https://www.openstreetmap.org/edit?editor=id&way=1065095113#map=20/45.4760034/9.1317791"}}, {"type": "Feature", "geometry": {"type": "Point", "coordinates": [9.1699199, 45.4741766]}, "properties": {"id": 1065105082, "feat_type": "way", "quality_categories": "keys_without_wiki", "issue_ids": "[3]", "osm_url": "https://www.openstreetmap.org/way/1065105082", "josm_url": "http://127.0.0.1:8111/load_object?new_layer=false&objects=w1065105082", "id_url": "https://www.openstreetmap.org/edit?editor=id&way=1065105082#map=20/45.4741766/9.1699199"}}, {"type": "Feature", "geometry": {"type": "Point", "coordinates": [9.1882304, 45.4810661]}, "properties": {"id": 1065135557, "feat_type": "way", "quality_categories": "keys_without_wiki, uncanny_keys", "issue_ids": "[47, 3]", "osm_url": "https://www.openstreetmap.org/way/1065135557", "josm_url": "http://127.0.0.1:8111/load_object?new_layer=false&objects=w1065135557", "id_url": "https://www.openstreetmap.org/edit?editor=id&way=1065135557#map=20/45.4810661/9.1882304"}}, {"type": "Feature", "geometry": {"type": "Point", "coordinates": [9.2154367, 45.4538284]}, "properties": {"id": 1065456265, "feat_type": "way", "quality_categories": "keys_without_wiki", "issue_ids": "[3]", "osm_url": "https://www.openstreetmap.org/way/1065456265", "josm_url": "http://127.0.0.1:8111/load_object?new_layer=false&objects=w1065456265", "id_url": "https://www.openstreetmap.org/edit?editor=id&way=1065456265#map=20/45.4538284/9.2154367"}}, {"type": "Feature", "geometry": {"type": "Point", "coordinates": [9.214504, 45.4534871]}, "properties": {"id": 1065456267, "feat_type": "way", "quality_categories": "keys_without_wiki, uncanny_keys", "issue_ids": "[48, 3]", "osm_url": "https://www.openstreetmap.org/way/1065456267", "josm_url": "http://127.0.0.1:8111/load_object?new_layer=false&objects=w1065456267", "id_url": "https://www.openstreetmap.org/edit?editor=id&way=1065456267#map=20/45.4534871/9.214504"}}, {"type": "Feature", "geometry": {"type": "Point", "coordinates": [9.2139611, 45.4545383]}, "properties": {"id": 1065456269, "feat_type": "way", "quality_categories": "keys_without_wiki, uncanny_keys", "issue_ids": "[49, 3]", "osm_url": "https://www.openstreetmap.org/way/1065456269", "josm_url": "http://127.0.0.1:8111/load_object?new_layer=false&objects=w1065456269", "id_url": "https://www.openstreetmap.org/edit?editor=id&way=1065456269#map=20/45.4545383/9.2139611"}}, {"type": "Feature", "geometry": {"type": "Point", "coordinates": [9.2115218, 45.4555325]}, "properties": {"id": 1065456270, "feat_type": "way", "quality_categories": "keys_without_wiki, uncanny_keys", "issue_ids": "[50, 3]", "osm_url": "https://www.openstreetmap.org/way/1065456270", "josm_url": "http://127.0.0.1:8111/load_object?new_layer=false&objects=w1065456270", "id_url": "https://www.openstreetmap.org/edit?editor=id&way=1065456270#map=20/45.4555325/9.2115218"}}, {"type": "Feature", "geometry": {"type": "Point", "coordinates": [9.2089202, 45.4564483]}, "properties": {"id": 1065456274, "feat_type": "way", "quality_categories": "keys_without_wiki", "issue_ids": "[3]", "osm_url": "https://www.openstreetmap.org/way/1065456274", "josm_url": "http://127.0.0.1:8111/load_object?new_layer=false&objects=w1065456274", "id_url": "https://www.openstreetmap.org/edit?editor=id&way=1065456274#map=20/45.4564483/9.2089202"}}, {"type": "Feature", "geometry": {"type": "Point", "coordinates": [9.190217, 45.4608159]}, "properties": {"id": 1069204486, "feat_type": "way", "quality_categories": "keys_without_wiki, missing_tags, uncanny_keys", "issue_ids": "[43, 3, 4]", "osm_url": "https://www.openstreetmap.org/way/1069204486", "josm_url": "http://127.0.0.1:8111/load_object?new_layer=false&objects=w1069204486", "id_url": "https://www.openstreetmap.org/edit?editor=id&way=1069204486#map=20/45.4608159/9.190217"}}, {"type": "Feature", "geometry": {"type": "Point", "coordinates": [9.2034051, 45.4252866]}, "properties": {"id": 1069266539, "feat_type": "way", "quality_categories": "keys_without_wiki, missing_tags, uncanny_keys", "issue_ids": "[51, 3, 4]", "osm_url": "https://www.openstreetmap.org/way/1069266539", "josm_url": "http://127.0.0.1:8111/load_object?new_layer=false&objects=w1069266539", "id_url": "https://www.openstreetmap.org/edit?editor=id&way=1069266539#map=20/45.4252866/9.2034051"}}, {"type": "Feature", "geometry": {"type": "Point", "coordinates": [9.2034083, 45.4255907]}, "properties": {"id": 1069266543, "feat_type": "way", "quality_categories": "keys_without_wiki, missing_tags, uncanny_keys", "issue_ids": "[51, 3, 4]", "osm_url": "https://www.openstreetmap.org/way/1069266543", "josm_url": "http://127.0.0.1:8111/load_object?new_layer=false&objects=w1069266543", "id_url": "https://www.openstreetmap.org/edit?editor=id&way=1069266543#map=20/45.4255907/9.2034083"}}, {"type": "Feature", "geometry": {"type": "Point", "coordinates": [9.1942142, 45.4725064]}, "properties": {"id": 1072632660, "feat_type": "way", "quality_categories": "keys_without_wiki, missing_tags", "issue_ids": "[52, 4]", "osm_url": "https://www.openstreetmap.org/way/1072632660", "josm_url": "http://127.0.0.1:8111/load_object?new_layer=false&objects=w1072632660", "id_url": "https://www.openstreetmap.org/edit?editor=id&way=1072632660#map=20/45.4725064/9.1942142"}}, {"type": "Feature", "geometry": {"type": "Point", "coordinates": [9.1957839, 45.4718745]}, "properties": {"id": 1072633680, "feat_type": "way", "quality_categories": "keys_without_wiki, missing_tags, uncanny_keys", "issue_ids": "[53, 52, 4]", "osm_url": "https://www.openstreetmap.org/way/1072633680", "josm_url": "http://127.0.0.1:8111/load_object?new_layer=false&objects=w1072633680", "id_url": "https://www.openstreetmap.org/edit?editor=id&way=1072633680#map=20/45.4718745/9.1957839"}}, {"type": "Feature", "geometry": {"type": "Point", "coordinates": [9.1955755, 45.4718594]}, "properties": {"id": 1072633682, "feat_type": "way", "quality_categories": "keys_without_wiki, missing_tags", "issue_ids": "[52, 4]", "osm_url": "https://www.openstreetmap.org/way/1072633682", "josm_url": "http://127.0.0.1:8111/load_object?new_layer=false&objects=w1072633682", "id_url": "https://www.openstreetmap.org/edit?editor=id&way=1072633682#map=20/45.4718594/9.1955755"}}, {"type": "Feature", "geometry": {"type": "Point", "coordinates": [9.1974668, 45.4702907]}, "properties": {"id": 1072660668, "feat_type": "way", "quality_categories": "keys_without_wiki, missing_tags", "issue_ids": "[52, 4]", "osm_url": "https://www.openstreetmap.org/way/1072660668", "josm_url": "http://127.0.0.1:8111/load_object?new_layer=false&objects=w1072660668", "id_url": "https://www.openstreetmap.org/edit?editor=id&way=1072660668#map=20/45.4702907/9.1974668"}}, {"type": "Feature", "geometry": {"type": "Point", "coordinates": [9.1989249, 45.4692405]}, "properties": {"id": 1072663757, "feat_type": "way", "quality_categories": "keys_without_wiki, missing_tags", "issue_ids": "[52, 4]", "osm_url": "https://www.openstreetmap.org/way/1072663757", "josm_url": "http://127.0.0.1:8111/load_object?new_layer=false&objects=w1072663757", "id_url": "https://www.openstreetmap.org/edit?editor=id&way=1072663757#map=20/45.4692405/9.1989249"}}, {"type": "Feature", "geometry": {"type": "Point", "coordinates": [9.1995897, 45.4683023]}, "properties": {"id": 1072665051, "feat_type": "way", "quality_categories": "keys_without_wiki, missing_tags", "issue_ids": "[52, 4]", "osm_url": "https://www.openstreetmap.org/way/1072665051", "josm_url": "http://127.0.0.1:8111/load_object?new_layer=false&objects=w1072665051", "id_url": "https://www.openstreetmap.org/edit?editor=id&way=1072665051#map=20/45.4683023/9.1995897"}}, {"type": "Feature", "geometry": {"type": "Point", "coordinates": [9.200451, 45.4673986]}, "properties": {"id": 1072665346, "feat_type": "way", "quality_categories": "keys_without_wiki", "issue_ids": "[52]", "osm_url": "https://www.openstreetmap.org/way/1072665346", "josm_url": "http://127.0.0.1:8111/load_object?new_layer=false&objects=w1072665346", "id_url": "https://www.openstreetmap.org/edit?editor=id&way=1072665346#map=20/45.4673986/9.200451"}}, {"type": "Feature", "geometry": {"type": "Point", "coordinates": [9.2004268, 45.4664267]}, "properties": {"id": 1072666603, "feat_type": "way", "quality_categories": "keys_without_wiki, missing_tags", "issue_ids": "[52, 4]", "osm_url": "https://www.openstreetmap.org/way/1072666603", "josm_url": "http://127.0.0.1:8111/load_object?new_layer=false&objects=w1072666603", "id_url": "https://www.openstreetmap.org/edit?editor=id&way=1072666603#map=20/45.4664267/9.2004268"}}, {"type": "Feature", "geometry": {"type": "Point", "coordinates": [9.1999903, 45.4649227]}, "properties": {"id": 1072666928, "feat_type": "way", "quality_categories": "keys_without_wiki, missing_tags", "issue_ids": "[52, 4]", "osm_url": "https://www.openstreetmap.org/way/1072666928", "josm_url": "http://127.0.0.1:8111/load_object?new_layer=false&objects=w1072666928", "id_url": "https://www.openstreetmap.org/edit?editor=id&way=1072666928#map=20/45.4649227/9.1999903"}}, {"type": "Feature", "geometry": {"type": "Point", "coordinates": [9.2003388, 45.4652075]}, "properties": {"id": 1072666930, "feat_type": "way", "quality_categories": "keys_without_wiki, missing_tags", "issue_ids": "[52, 4]", "osm_url": "https://www.openstreetmap.org/way/1072666930", "josm_url": "http://127.0.0.1:8111/load_object?new_layer=false&objects=w1072666930", "id_url": "https://www.openstreetmap.org/edit?editor=id&way=1072666930#map=20/45.4652075/9.2003388"}}, {"type": "Feature", "geometry": {"type": "Point", "coordinates": [9.1794215, 45.4682611]}, "properties": {"id": 1072996436, "feat_type": "way", "quality_categories": "keys_without_wiki, uncanny_keys", "issue_ids": "[54, 3]", "osm_url": "https://www.openstreetmap.org/way/1072996436", "josm_url": "http://127.0.0.1:8111/load_object?new_layer=false&objects=w1072996436", "id_url": "https://www.openstreetmap.org/edit?editor=id&way=1072996436#map=20/45.4682611/9.1794215"}}, {"type": "Feature", "geometry": {"type": "Point", "coordinates": [9.1874242, 45.4566388]}, "properties": {"id": 1073025529, "feat_type": "way", "quality_categories": "keys_without_wiki, uncanny_keys", "issue_ids": "[55, 3]", "osm_url": "https://www.openstreetmap.org/way/1073025529", "josm_url": "http://127.0.0.1:8111/load_object?new_layer=false&objects=w1073025529", "id_url": "https://www.openstreetmap.org/edit?editor=id&way=1073025529#map=20/45.4566388/9.1874242"}}, {"type": "Feature", "geometry": {"type": "Point", "coordinates": [9.1809694, 45.4571722]}, "properties": {"id": 1073047692, "feat_type": "way", "quality_categories": "keys_without_wiki, missing_tags", "issue_ids": "[3, 4]", "osm_url": "https://www.openstreetmap.org/way/1073047692", "josm_url": "http://127.0.0.1:8111/load_object?new_layer=false&objects=w1073047692", "id_url": "https://www.openstreetmap.org/edit?editor=id&way=1073047692#map=20/45.4571722/9.1809694"}}, {"type": "Feature", "geometry": {"type": "Point", "coordinates": [9.1751487, 45.4662734]}, "properties": {"id": 1073054127, "feat_type": "way", "quality_categories": "keys_without_wiki, missing_tags, uncanny_keys", "issue_ids": "[23, 3, 4]", "osm_url": "https://www.openstreetmap.org/way/1073054127", "josm_url": "http://127.0.0.1:8111/load_object?new_layer=false&objects=w1073054127", "id_url": "https://www.openstreetmap.org/edit?editor=id&way=1073054127#map=20/45.4662734/9.1751487"}}, {"type": "Feature", "geometry": {"type": "Point", "coordinates": [9.2071971, 45.4653625]}, "properties": {"id": 1075775328, "feat_type": "way", "quality_categories": "keys_without_wiki, uncanny_keys", "issue_ids": "[45, 3]", "osm_url": "https://www.openstreetmap.org/way/1075775328", "josm_url": "http://127.0.0.1:8111/load_object?new_layer=false&objects=w1075775328", "id_url": "https://www.openstreetmap.org/edit?editor=id&way=1075775328#map=20/45.4653625/9.2071971"}}, {"type": "Feature", "geometry": {"type": "Point", "coordinates": [9.2142958, 45.472803]}, "properties": {"id": 1078820172, "feat_type": "way", "quality_categories": "keys_without_wiki", "issue_ids": "[3]", "osm_url": "https://www.openstreetmap.org/way/1078820172", "josm_url": "http://127.0.0.1:8111/load_object?new_layer=false&objects=w1078820172", "id_url": "https://www.openstreetmap.org/edit?editor=id&way=1078820172#map=20/45.472803/9.2142958"}}, {"type": "Feature", "geometry": {"type": "Point", "coordinates": [9.2093054, 45.4564305]}, "properties": {"id": 1080223408, "feat_type": "way", "quality_categories": "keys_without_wiki", "issue_ids": "[3]", "osm_url": "https://www.openstreetmap.org/way/1080223408", "josm_url": "http://127.0.0.1:8111/load_object?new_layer=false&objects=w1080223408", "id_url": "https://www.openstreetmap.org/edit?editor=id&way=1080223408#map=20/45.4564305/9.2093054"}}, {"type": "Feature", "geometry": {"type": "Point", "coordinates": [9.1689862, 45.4778872]}, "properties": {"id": 1080268687, "feat_type": "way", "quality_categories": "keys_without_wiki", "issue_ids": "[3]", "osm_url": "https://www.openstreetmap.org/way/1080268687", "josm_url": "http://127.0.0.1:8111/load_object?new_layer=false&objects=w1080268687", "id_url": "https://www.openstreetmap.org/edit?editor=id&way=1080268687#map=20/45.4778872/9.1689862"}}, {"type": "Feature", "geometry": {"type": "Point", "coordinates": [9.1678683, 45.4817197]}, "properties": {"id": 1080275020, "feat_type": "way", "quality_categories": "keys_without_wiki, uncanny_keys", "issue_ids": "[56, 3]", "osm_url": "https://www.openstreetmap.org/way/1080275020", "josm_url": "http://127.0.0.1:8111/load_object?new_layer=false&objects=w1080275020", "id_url": "https://www.openstreetmap.org/edit?editor=id&way=1080275020#map=20/45.4817197/9.1678683"}}, {"type": "Feature", "geometry": {"type": "Point", "coordinates": [9.1681224, 45.4821373]}, "properties": {"id": 1080275355, "feat_type": "way", "quality_categories": "keys_without_wiki", "issue_ids": "[3]", "osm_url": "https://www.openstreetmap.org/way/1080275355", "josm_url": "http://127.0.0.1:8111/load_object?new_layer=false&objects=w1080275355", "id_url": "https://www.openstreetmap.org/edit?editor=id&way=1080275355#map=20/45.4821373/9.1681224"}}, {"type": "Feature", "geometry": {"type": "Point", "coordinates": [9.1658776, 45.4735624]}, "properties": {"id": 1088096397, "feat_type": "way", "quality_categories": "keys_without_wiki", "issue_ids": "[3]", "osm_url": "https://www.openstreetmap.org/way/1088096397", "josm_url": "http://127.0.0.1:8111/load_object?new_layer=false&objects=w1088096397", "id_url": "https://www.openstreetmap.org/edit?editor=id&way=1088096397#map=20/45.4735624/9.1658776"}}, {"type": "Feature", "geometry": {"type": "Point", "coordinates": [9.1845002, 45.4454621]}, "properties": {"id": 1088395854, "feat_type": "way", "quality_categories": "keys_without_wiki", "issue_ids": "[3]", "osm_url": "https://www.openstreetmap.org/way/1088395854", "josm_url": "http://127.0.0.1:8111/load_object?new_layer=false&objects=w1088395854", "id_url": "https://www.openstreetmap.org/edit?editor=id&way=1088395854#map=20/45.4454621/9.1845002"}}, {"type": "Feature", "geometry": {"type": "Point", "coordinates": [9.1588384, 45.4482393]}, "properties": {"id": 1088772241, "feat_type": "way", "quality_categories": "keys_without_wiki, uncanny_keys", "issue_ids": "[57, 3]", "osm_url": "https://www.openstreetmap.org/way/1088772241", "josm_url": "http://127.0.0.1:8111/load_object?new_layer=false&objects=w1088772241", "id_url": "https://www.openstreetmap.org/edit?editor=id&way=1088772241#map=20/45.4482393/9.1588384"}}, {"type": "Feature", "geometry": {"type": "Point", "coordinates": [9.1681342, 45.4506819]}, "properties": {"id": 1088801809, "feat_type": "way", "quality_categories": "keys_without_wiki, uncanny_keys", "issue_ids": "[58, 3]", "osm_url": "https://www.openstreetmap.org/way/1088801809", "josm_url": "http://127.0.0.1:8111/load_object?new_layer=false&objects=w1088801809", "id_url": "https://www.openstreetmap.org/edit?editor=id&way=1088801809#map=20/45.4506819/9.1681342"}}, {"type": "Feature", "geometry": {"type": "Point", "coordinates": [9.168644, 45.4508875]}, "properties": {"id": 1088802519, "feat_type": "way", "quality_categories": "keys_without_wiki, uncanny_keys", "issue_ids": "[58, 3]", "osm_url": "https://www.openstreetmap.org/way/1088802519", "josm_url": "http://127.0.0.1:8111/load_object?new_layer=false&objects=w1088802519", "id_url": "https://www.openstreetmap.org/edit?editor=id&way=1088802519#map=20/45.4508875/9.168644"}}, {"type": "Feature", "geometry": {"type": "Point", "coordinates": [9.2177339, 45.4581686]}, "properties": {"id": 1090229295, "feat_type": "way", "quality_categories": "keys_without_wiki, missing_tags", "issue_ids": "[3, 4]", "osm_url": "https://www.openstreetmap.org/way/1090229295", "josm_url": "http://127.0.0.1:8111/load_object?new_layer=false&objects=w1090229295", "id_url": "https://www.openstreetmap.org/edit?editor=id&way=1090229295#map=20/45.4581686/9.2177339"}}, {"type": "Feature", "geometry": {"type": "Point", "coordinates": [9.2344946, 45.4805096]}, "properties": {"id": 1092126029, "feat_type": "way", "quality_categories": "keys_without_wiki, uncanny_keys", "issue_ids": "[59, 3]", "osm_url": "https://www.openstreetmap.org/way/1092126029", "josm_url": "http://127.0.0.1:8111/load_object?new_layer=false&objects=w1092126029", "id_url": "https://www.openstreetmap.org/edit?editor=id&way=1092126029#map=20/45.4805096/9.2344946"}}, {"type": "Feature", "geometry": {"type": "Point", "coordinates": [9.2208904, 45.4749308]}, "properties": {"id": 1092132213, "feat_type": "way", "quality_categories": "keys_without_wiki, uncanny_keys", "issue_ids": "[27, 3]", "osm_url": "https://www.openstreetmap.org/way/1092132213", "josm_url": "http://127.0.0.1:8111/load_object?new_layer=false&objects=w1092132213", "id_url": "https://www.openstreetmap.org/edit?editor=id&way=1092132213#map=20/45.4749308/9.2208904"}}, {"type": "Feature", "geometry": {"type": "Point", "coordinates": [9.2256609, 45.4770703]}, "properties": {"id": 1092134652, "feat_type": "way", "quality_categories": "keys_without_wiki, uncanny_keys", "issue_ids": "[25, 3]", "osm_url": "https://www.openstreetmap.org/way/1092134652", "josm_url": "http://127.0.0.1:8111/load_object?new_layer=false&objects=w1092134652", "id_url": "https://www.openstreetmap.org/edit?editor=id&way=1092134652#map=20/45.4770703/9.2256609"}}, {"type": "Feature", "geometry": {"type": "Point", "coordinates": [9.2234448, 45.4710354]}, "properties": {"id": 1092348753, "feat_type": "way", "quality_categories": "keys_without_wiki, missing_tags, uncanny_keys", "issue_ids": "[60, 3, 4]", "osm_url": "https://www.openstreetmap.org/way/1092348753", "josm_url": "http://127.0.0.1:8111/load_object?new_layer=false&objects=w1092348753", "id_url": "https://www.openstreetmap.org/edit?editor=id&way=1092348753#map=20/45.4710354/9.2234448"}}, {"type": "Feature", "geometry": {"type": "Point", "coordinates": [9.2263042, 45.470841]}, "properties": {"id": 1092351436, "feat_type": "way", "quality_categories": "keys_without_wiki", "issue_ids": "[3]", "osm_url": "https://www.openstreetmap.org/way/1092351436", "josm_url": "http://127.0.0.1:8111/load_object?new_layer=false&objects=w1092351436", "id_url": "https://www.openstreetmap.org/edit?editor=id&way=1092351436#map=20/45.470841/9.2263042"}}, {"type": "Feature", "geometry": {"type": "Point", "coordinates": [9.2244749, 45.4709855]}, "properties": {"id": 1092351438, "feat_type": "way", "quality_categories": "keys_without_wiki", "issue_ids": "[3]", "osm_url": "https://www.openstreetmap.org/way/1092351438", "josm_url": "http://127.0.0.1:8111/load_object?new_layer=false&objects=w1092351438", "id_url": "https://www.openstreetmap.org/edit?editor=id&way=1092351438#map=20/45.4709855/9.2244749"}}, {"type": "Feature", "geometry": {"type": "Point", "coordinates": [9.2267654, 45.4710062]}, "properties": {"id": 1092352021, "feat_type": "way", "quality_categories": "keys_without_wiki", "issue_ids": "[3]", "osm_url": "https://www.openstreetmap.org/way/1092352021", "josm_url": "http://127.0.0.1:8111/load_object?new_layer=false&objects=w1092352021", "id_url": "https://www.openstreetmap.org/edit?editor=id&way=1092352021#map=20/45.4710062/9.2267654"}}, {"type": "Feature", "geometry": {"type": "Point", "coordinates": [9.2299776, 45.4709025]}, "properties": {"id": 1092354560, "feat_type": "way", "quality_categories": "keys_without_wiki, uncanny_keys", "issue_ids": "[61, 3]", "osm_url": "https://www.openstreetmap.org/way/1092354560", "josm_url": "http://127.0.0.1:8111/load_object?new_layer=false&objects=w1092354560", "id_url": "https://www.openstreetmap.org/edit?editor=id&way=1092354560#map=20/45.4709025/9.2299776"}}, {"type": "Feature", "geometry": {"type": "Point", "coordinates": [9.2304535, 45.4710383]}, "properties": {"id": 1092356154, "feat_type": "way", "quality_categories": "keys_without_wiki, missing_tags", "issue_ids": "[3, 4]", "osm_url": "https://www.openstreetmap.org/way/1092356154", "josm_url": "http://127.0.0.1:8111/load_object?new_layer=false&objects=w1092356154", "id_url": "https://www.openstreetmap.org/edit?editor=id&way=1092356154#map=20/45.4710383/9.2304535"}}, {"type": "Feature", "geometry": {"type": "Point", "coordinates": [9.2335568, 45.4710571]}, "properties": {"id": 1092360510, "feat_type": "way", "quality_categories": "keys_without_wiki", "issue_ids": "[3]", "osm_url": "https://www.openstreetmap.org/way/1092360510", "josm_url": "http://127.0.0.1:8111/load_object?new_layer=false&objects=w1092360510", "id_url": "https://www.openstreetmap.org/edit?editor=id&way=1092360510#map=20/45.4710571/9.2335568"}}, {"type": "Feature", "geometry": {"type": "Point", "coordinates": [9.2336467, 45.4708684]}, "properties": {"id": 1092362203, "feat_type": "way", "quality_categories": "keys_without_wiki", "issue_ids": "[3]", "osm_url": "https://www.openstreetmap.org/way/1092362203", "josm_url": "http://127.0.0.1:8111/load_object?new_layer=false&objects=w1092362203", "id_url": "https://www.openstreetmap.org/edit?editor=id&way=1092362203#map=20/45.4708684/9.2336467"}}, {"type": "Feature", "geometry": {"type": "Point", "coordinates": [9.2257514, 45.4789256]}, "properties": {"id": 1092625503, "feat_type": "way", "quality_categories": "keys_without_wiki, uncanny_keys", "issue_ids": "[62, 3]", "osm_url": "https://www.openstreetmap.org/way/1092625503", "josm_url": "http://127.0.0.1:8111/load_object?new_layer=false&objects=w1092625503", "id_url": "https://www.openstreetmap.org/edit?editor=id&way=1092625503#map=20/45.4789256/9.2257514"}}, {"type": "Feature", "geometry": {"type": "Point", "coordinates": [9.1637539, 45.4894553]}, "properties": {"id": 1094209492, "feat_type": "way", "quality_categories": "keys_without_wiki, missing_tags, uncanny_keys", "issue_ids": "[63, 3, 4]", "osm_url": "https://www.openstreetmap.org/way/1094209492", "josm_url": "http://127.0.0.1:8111/load_object?new_layer=false&objects=w1094209492", "id_url": "https://www.openstreetmap.org/edit?editor=id&way=1094209492#map=20/45.4894553/9.1637539"}}, {"type": "Feature", "geometry": {"type": "Point", "coordinates": [9.1640808, 45.4893192]}, "properties": {"id": 1094210780, "feat_type": "way", "quality_categories": "keys_without_wiki, missing_tags, uncanny_keys", "issue_ids": "[63, 3, 4]", "osm_url": "https://www.openstreetmap.org/way/1094210780", "josm_url": "http://127.0.0.1:8111/load_object?new_layer=false&objects=w1094210780", "id_url": "https://www.openstreetmap.org/edit?editor=id&way=1094210780#map=20/45.4893192/9.1640808"}}, {"type": "Feature", "geometry": {"type": "Point", "coordinates": [9.2246712, 45.4512047]}, "properties": {"id": 1148446013, "feat_type": "way", "quality_categories": "keys_without_wiki", "issue_ids": "[3]", "osm_url": "https://www.openstreetmap.org/way/1148446013", "josm_url": "http://127.0.0.1:8111/load_object?new_layer=false&objects=w1148446013", "id_url": "https://www.openstreetmap.org/edit?editor=id&way=1148446013#map=20/45.4512047/9.2246712"}}, {"type": "Feature", "geometry": {"type": "Point", "coordinates": [9.2010911, 45.4332669]}, "properties": {"id": 1190606908, "feat_type": "way", "quality_categories": "keys_without_wiki, missing_tags, uncanny_keys", "issue_ids": "[64, 3, 4]", "osm_url": "https://www.openstreetmap.org/way/1190606908", "josm_url": "http://127.0.0.1:8111/load_object?new_layer=false&objects=w1190606908", "id_url": "https://www.openstreetmap.org/edit?editor=id&way=1190606908#map=20/45.4332669/9.2010911"}}, {"type": "Feature", "geometry": {"type": "Point", "coordinates": [9.1876512, 45.4632895]}, "properties": {"id": 1349605714, "feat_type": "way", "quality_categories": "keys_without_wiki", "issue_ids": "[3]", "osm_url": "https://www.openstreetmap.org/way/1349605714", "josm_url": "http://127.0.0.1:8111/load_object?new_layer=false&objects=w1349605714", "id_url": "https://www.openstreetmap.org/edit?editor=id&way=1349605714#map=20/45.4632895/9.1876512"}}, {"type": "Feature", "geometry": {"type": "Point", "coordinates": [9.1879551, 45.4633979]}, "properties": {"id": 1349605821, "feat_type": "way", "quality_categories": "keys_without_wiki", "issue_ids": "[3]", "osm_url": "https://www.openstreetmap.org/way/1349605821", "josm_url": "http://127.0.0.1:8111/load_object?new_layer=false&objects=w1349605821", "id_url": "https://www.openstreetmap.org/edit?editor=id&way=1349605821#map=20/45.4633979/9.1879551"}}, {"type": "Feature", "geometry": {"type": "Point", "coordinates": [9.1962459, 45.4528998]}, "properties": {"id": 1351614060, "feat_type": "way", "quality_categories": "keys_without_wiki", "issue_ids": "[3]", "osm_url": "https://www.openstreetmap.org/way/1351614060", "josm_url": "http://127.0.0.1:8111/load_object?new_layer=false&objects=w1351614060", "id_url": "https://www.openstreetmap.org/edit?editor=id&way=1351614060#map=20/45.4528998/9.1962459"}}, {"type": "Feature", "geometry": {"type": "Point", "coordinates": [9.1997737, 45.4399195]}, "properties": {"id": 1351851387, "feat_type": "way", "quality_categories": "keys_without_wiki, uncanny_keys", "issue_ids": "[65, 3]", "osm_url": "https://www.openstreetmap.org/way/1351851387", "josm_url": "http://127.0.0.1:8111/load_object?new_layer=false&objects=w1351851387", "id_url": "https://www.openstreetmap.org/edit?editor=id&way=1351851387#map=20/45.4399195/9.1997737"}}, {"type": "Feature", "geometry": {"type": "Point", "coordinates": [9.1999126, 45.4401525]}, "properties": {"id": 1351856612, "feat_type": "way", "quality_categories": "keys_without_wiki, uncanny_keys", "issue_ids": "[65, 3]", "osm_url": "https://www.openstreetmap.org/way/1351856612", "josm_url": "http://127.0.0.1:8111/load_object?new_layer=false&objects=w1351856612", "id_url": "https://www.openstreetmap.org/edit?editor=id&way=1351856612#map=20/45.4401525/9.1999126"}}, {"type": "Feature", "geometry": {"type": "Point", "coordinates": [9.2006673, 45.4364666]}, "properties": {"id": 1351906502, "feat_type": "way", "quality_categories": "keys_without_wiki, uncanny_keys", "issue_ids": "[66, 3]", "osm_url": "https://www.openstreetmap.org/way/1351906502", "josm_url": "http://127.0.0.1:8111/load_object?new_layer=false&objects=w1351906502", "id_url": "https://www.openstreetmap.org/edit?editor=id&way=1351906502#map=20/45.4364666/9.2006673"}}, {"type": "Feature", "geometry": {"type": "Point", "coordinates": [9.2006193, 45.4355704]}, "properties": {"id": 1351906809, "feat_type": "way", "quality_categories": "keys_without_wiki, uncanny_keys", "issue_ids": "[66, 3]", "osm_url": "https://www.openstreetmap.org/way/1351906809", "josm_url": "http://127.0.0.1:8111/load_object?new_layer=false&objects=w1351906809", "id_url": "https://www.openstreetmap.org/edit?editor=id&way=1351906809#map=20/45.4355704/9.2006193"}}, {"type": "Feature", "geometry": {"type": "Point", "coordinates": [9.2011365, 45.4338289]}, "properties": {"id": 1351907245, "feat_type": "way", "quality_categories": "keys_without_wiki, uncanny_keys", "issue_ids": "[64, 3]", "osm_url": "https://www.openstreetmap.org/way/1351907245", "josm_url": "http://127.0.0.1:8111/load_object?new_layer=false&objects=w1351907245", "id_url": "https://www.openstreetmap.org/edit?editor=id&way=1351907245#map=20/45.4338289/9.2011365"}}, {"type": "Feature", "geometry": {"type": "Point", "coordinates": [9.2014268, 45.4319148]}, "properties": {"id": 1351909198, "feat_type": "way", "quality_categories": "keys_without_wiki, uncanny_keys", "issue_ids": "[67, 3]", "osm_url": "https://www.openstreetmap.org/way/1351909198", "josm_url": "http://127.0.0.1:8111/load_object?new_layer=false&objects=w1351909198", "id_url": "https://www.openstreetmap.org/edit?editor=id&way=1351909198#map=20/45.4319148/9.2014268"}}, {"type": "Feature", "geometry": {"type": "Point", "coordinates": [9.2018582, 45.4311967]}, "properties": {"id": 1351909200, "feat_type": "way", "quality_categories": "keys_without_wiki, uncanny_keys", "issue_ids": "[67, 3]", "osm_url": "https://www.openstreetmap.org/way/1351909200", "josm_url": "http://127.0.0.1:8111/load_object?new_layer=false&objects=w1351909200", "id_url": "https://www.openstreetmap.org/edit?editor=id&way=1351909200#map=20/45.4311967/9.2018582"}}, {"type": "Feature", "geometry": {"type": "Point", "coordinates": [9.1658196, 45.4736062]}, "properties": {"id": 1431085690, "feat_type": "way", "quality_categories": "keys_without_wiki", "issue_ids": "[3]", "osm_url": "https://www.openstreetmap.org/way/1431085690", "josm_url": "http://127.0.0.1:8111/load_object?new_layer=false&objects=w1431085690", "id_url": "https://www.openstreetmap.org/edit?editor=id&way=1431085690#map=20/45.4736062/9.1658196"}}, {"type": "Feature", "geometry": {"type": "Point", "coordinates": [9.172778, 45.4680551]}, "properties": {"id": 1530410289, "feat_type": "way", "quality_categories": "keys_without_wiki", "issue_ids": "[3]", "osm_url": "https://www.openstreetmap.org/way/1530410289", "josm_url": "http://127.0.0.1:8111/load_object?new_layer=false&objects=w1530410289", "id_url": "https://www.openstreetmap.org/edit?editor=id&way=1530410289#map=20/45.4680551/9.172778"}}]}