{"type": "FeatureCollection", "features": [{"type": "Feature", "geometry": {"type": "Point", "coordinates": [9.1892546, 45.4656092]}, "properties": {"id": 23227664, "feat_type": "way", "quality_categories": "improper_keys, keys_without_wiki, missing_tags", "issue_ids": "[0, 1, 2]", "osm_url": "https://www.openstreetmap.org/way/23227664", "josm_url": "http://127.0.0.1:8111/load_object?new_layer=false&objects=w23227664", "id_url": "https://www.openstreetmap.org/edit?editor=id&way=23227664#map=20/45.4656092/9.1892546"}}, {"type": "Feature", "geometry": {"type": "Point", "coordinates": [9.1753711, 45.523584]}, "properties": {"id": 113517742, "feat_type": "way", "quality_categories": "improper_keys, keys_without_wiki", "issue_ids": "[3, 4]", "osm_url": "https://www.openstreetmap.org/way/113517742", "josm_url": "http://127.0.0.1:8111/load_object?new_layer=false&objects=w113517742", "id_url": "https://www.openstreetmap.org/edit?editor=id&way=113517742#map=20/45.523584/9.1753711"}}, {"type": "Feature", "geometry": {"type": "Point", "coordinates": [9.2439712, 45.4612244]}, "properties": {"id": 1146036976, "feat_type": "way", "quality_categories": "keys_without_wiki, missing_tags", "issue_ids": "[5, 2]", "osm_url": "https://www.openstreetmap.org/way/1146036976", "josm_url": "http://127.0.0.1:8111/load_object?new_layer=false&objects=w1146036976", "id_url": "https://www.openstreetmap.org/edit?editor=id&way=1146036976#map=20/45.4612244/9.2439712"}}, {"type": "Feature", "geometry": {"type": "Point", "coordinates": [9.2441831, 45.4612522]}, "properties": {"id": 1146036977, "feat_type": "way", "quality_categories": "keys_without_wiki, missing_tags", "issue_ids": "[5, 2]", "osm_url": "https://www.openstreetmap.org/way/1146036977", "josm_url": "http://127.0.0.1:8111/load_object?new_layer=false&objects=w1146036977", "id_url": "https://www.openstreetmap.org/edit?editor=id&way=1146036977#map=20/45.4612522/9.2441831"}}, {"type": "Feature", "geometry": {"type": "Point", "coordinates": [9.1658401, 45.4735907]}, "properties": {"id": 1431085691, "feat_type": "way", "quality_categories": "crossings_lacking_kerbs, keys_without_wiki", "issue_ids": "[6, 7]", "osm_url": "https://www.openstreetmap.org/way/1431085691", "josm_url": "http://127.0.0.1:8111/load_object?new_layer=false&objects=w1431085691", "id_url": "https://www.openstreetmap.org/edit?editor=id&way=1431085691#map=20/45.4735907/9.1658401"}}]}