{"type": "FeatureCollection", "features": [{"type": "Feature", "geometry": {"type": "Point", "coordinates": [9.168735902912449, 45.528821]}, "properties": {"id": 2885972, "feat_type": "relation", "quality_categories": "keys_without_wiki, older_than_five_years", "issue_ids": "[0, 1]", "osm_url": "https://www.openstreetmap.org/relation/2885972", "josm_url": "http://127.0.0.1:8111/load_object?new_layer=false&objects=r2885972", "id_url": "https://www.openstreetmap.org/edit?editor=id&relation=2885972#map=20/45.528821/9.168735902912449"}}, {"type": "Feature", "geometry": {"type": "Point", "coordinates": [9.1803657, 45.465325]}, "properties": {"id": 4519675, "feat_type": "way", "quality_categories": "keys_without_wiki, older_than_five_years", "issue_ids": "[2, 3]", "osm_url": "https://www.openstreetmap.org/way/4519675", "josm_url": "http://127.0.0.1:8111/load_object?new_layer=false&objects=w4519675", "id_url": "https://www.openstreetmap.org/edit?editor=id&way=4519675#map=20/45.465325/9.1803657"}}, {"type": "Feature", "geometry": {"type": "Point", "coordinates": [9.1827396, 45.4613509]}, "properties": {"id": 4520049, "feat_type": "way", "quality_categories": "keys_without_wiki", "issue_ids": "[2]", "osm_url": "https://www.openstreetmap.org/way/4520049", "josm_url": "http://127.0.0.1:8111/load_object?new_layer=false&objects=w4520049", "id_url": "https://www.openstreetmap.org/edit?editor=id&way=4520049#map=20/45.4613509/9.1827396"}}, {"type": "Feature", "geometry": {"type": "Point", "coordinates": [9.1898469, 45.4632903]}, "properties": {"id": 4520096, "feat_type": "way", "quality_categories": "keys_without_wiki", "issue_ids": "[2]", "osm_url": "https://www.openstreetmap.org/way/4520096", "josm_url": "http://127.0.0.1:8111/load_object?new_layer=false&objects=w4520096", "id_url": "https://www.openstreetmap.org/edit?editor=id&way=4520096#map=20/45.4632903/9.1898469"}}, {"type": "Feature", "geometry": {"type": "Point", "coordinates": [9.18857, 45.4632949]}, "properties": {"id": 4520097, "feat_type": "way", "quality_categories": "keys_without_wiki", "issue_ids": "[2]", "osm_url": "https://www.openstreetmap.org/way/4520097", "josm_url": "http://127.0.0.1:8111/load_object?new_layer=false&objects=w4520097", "id_url": "https://www.openstreetmap.org/edit?editor=id&way=4520097#map=20/45.4632949/9.18857"}}, {"type": "Feature", "geometry": {"type": "Point", "coordinates": [9.1700591, 45.4741393]}, "properties": {"id": 5110235, "feat_type": "way", "quality_categories": "keys_without_wiki", "issue_ids": "[4]", "osm_url": "https://www.openstreetmap.org/way/5110235", "josm_url": "http://127.0.0.1:8111/load_object?new_layer=false&objects=w5110235", "id_url": "https://www.openstreetmap.org/edit?editor=id&way=5110235#map=20/45.4741393/9.1700591"}}, {"type": "Feature", "geometry": {"type": "Point", "coordinates": [9.1858293, 45.4638799]}, "properties": {"id": 7980551, "feat_type": "way", "quality_categories": "keys_without_wiki", "issue_ids": "[0]", "osm_url": "https://www.openstreetmap.org/way/7980551", "josm_url": "http://127.0.0.1:8111/load_object?new_layer=false&objects=w7980551", "id_url": "https://www.openstreetmap.org/edit?editor=id&way=7980551#map=20/45.4638799/9.1858293"}}, {"type": "Feature", "geometry": {"type": "Point", "coordinates": [9.192175, 45.4630249]}, "properties": {"id": 8423863, "feat_type": "way", "quality_categories": "keys_without_wiki", "issue_ids": "[2]", "osm_url": "https://www.openstreetmap.org/way/8423863", "josm_url": "http://127.0.0.1:8111/load_object?new_layer=false&objects=w8423863", "id_url": "https://www.openstreetmap.org/edit?editor=id&way=8423863#map=20/45.4630249/9.192175"}}, {"type": "Feature", "geometry": {"type": "Point", "coordinates": [9.1721766, 45.4762915]}, "properties": {"id": 15238344, "feat_type": "way", "quality_categories": "keys_without_wiki", "issue_ids": "[5]", "osm_url": "https://www.openstreetmap.org/way/15238344", "josm_url": "http://127.0.0.1:8111/load_object?new_layer=false&objects=w15238344", "id_url": "https://www.openstreetmap.org/edit?editor=id&way=15238344#map=20/45.4762915/9.1721766"}}, {"type": "Feature", "geometry": {"type": "Point", "coordinates": [9.1850392, 45.4661256]}, "properties": {"id": 22743856, "feat_type": "way", "quality_categories": "keys_without_wiki", "issue_ids": "[0]", "osm_url": "https://www.openstreetmap.org/way/22743856", "josm_url": "http://127.0.0.1:8111/load_object?new_layer=false&objects=w22743856", "id_url": "https://www.openstreetmap.org/edit?editor=id&way=22743856#map=20/45.4661256/9.1850392"}}, {"type": "Feature", "geometry": {"type": "Point", "coordinates": [9.1874529, 45.4678478]}, "properties": {"id": 23227351, "feat_type": "way", "quality_categories": "keys_without_wiki", "issue_ids": "[2]", "osm_url": "https://www.openstreetmap.org/way/23227351", "josm_url": "http://127.0.0.1:8111/load_object?new_layer=false&objects=w23227351", "id_url": "https://www.openstreetmap.org/edit?editor=id&way=23227351#map=20/45.4678478/9.1874529"}}, {"type": "Feature", "geometry": {"type": "Point", "coordinates": [9.1912975, 45.4658602]}, "properties": {"id": 23227478, "feat_type": "way", "quality_categories": "keys_without_wiki", "issue_ids": "[2]", "osm_url": "https://www.openstreetmap.org/way/23227478", "josm_url": "http://127.0.0.1:8111/load_object?new_layer=false&objects=w23227478", "id_url": "https://www.openstreetmap.org/edit?editor=id&way=23227478#map=20/45.4658602/9.1912975"}}, {"type": "Feature", "geometry": {"type": "Point", "coordinates": [9.1965707, 45.4638346]}, "properties": {"id": 23227646, "feat_type": "way", "quality_categories": "keys_without_wiki", "issue_ids": "[6]", "osm_url": "https://www.openstreetmap.org/way/23227646", "josm_url": "http://127.0.0.1:8111/load_object?new_layer=false&objects=w23227646", "id_url": "https://www.openstreetmap.org/edit?editor=id&way=23227646#map=20/45.4638346/9.1965707"}}, {"type": "Feature", "geometry": {"type": "Point", "coordinates": [9.1869938, 45.4810908]}, "properties": {"id": 23331764, "feat_type": "way", "quality_categories": "keys_without_wiki", "issue_ids": "[0]", "osm_url": "https://www.openstreetmap.org/way/23331764", "josm_url": "http://127.0.0.1:8111/load_object?new_layer=false&objects=w23331764", "id_url": "https://www.openstreetmap.org/edit?editor=id&way=23331764#map=20/45.4810908/9.1869938"}}, {"type": "Feature", "geometry": {"type": "Point", "coordinates": [9.1838949, 45.4616063]}, "properties": {"id": 24815726, "feat_type": "way", "quality_categories": "keys_without_wiki", "issue_ids": "[2]", "osm_url": "https://www.openstreetmap.org/way/24815726", "josm_url": "http://127.0.0.1:8111/load_object?new_layer=false&objects=w24815726", "id_url": "https://www.openstreetmap.org/edit?editor=id&way=24815726#map=20/45.4616063/9.1838949"}}, {"type": "Feature", "geometry": {"type": "Point", "coordinates": [9.19269904589179, 45.458293499999996]}, "properties": {"id": 24971163, "feat_type": "way", "quality_categories": "keys_without_wiki", "issue_ids": "[2]", "osm_url": "https://www.openstreetmap.org/way/24971163", "josm_url": "http://127.0.0.1:8111/load_object?new_layer=false&objects=w24971163", "id_url": "https://www.openstreetmap.org/edit?editor=id&way=24971163#map=20/45.458293499999996/9.19269904589179"}}, {"type": "Feature", "geometry": {"type": "Point", "coordinates": [9.186454653707685, 45.46088185]}, "properties": {"id": 27745056, "feat_type": "way", "quality_categories": "keys_without_wiki, missing_tags", "issue_ids": "[2, 7]", "osm_url": "https://www.openstreetmap.org/way/27745056", "josm_url": "http://127.0.0.1:8111/load_object?new_layer=false&objects=w27745056", "id_url": "https://www.openstreetmap.org/edit?editor=id&way=27745056#map=20/45.46088185/9.186454653707685"}}, {"type": "Feature", "geometry": {"type": "Point", "coordinates": [9.1855594, 45.4602434]}, "properties": {"id": 27745201, "feat_type": "way", "quality_categories": "keys_without_wiki", "issue_ids": "[2]", "osm_url": "https://www.openstreetmap.org/way/27745201", "josm_url": "http://127.0.0.1:8111/load_object?new_layer=false&objects=w27745201", "id_url": "https://www.openstreetmap.org/edit?editor=id&way=27745201#map=20/45.4602434/9.1855594"}}, {"type": "Feature", "geometry": {"type": "Point", "coordinates": [9.1712746, 45.450922]}, "properties": {"id": 28032419, "feat_type": "way", "quality_categories": "keys_without_wiki", "issue_ids": "[2]", "osm_url": "https://www.openstreetmap.org/way/28032419", "josm_url": "http://127.0.0.1:8111/load_object?new_layer=false&objects=w28032419", "id_url": "https://www.openstreetmap.org/edit?editor=id&way=28032419#map=20/45.450922/9.1712746"}}, {"type": "Feature", "geometry": {"type": "Point", "coordinates": [9.1737913, 45.4514657]}, "properties": {"id": 30689486, "feat_type": "way", "quality_categories": "keys_without_wiki", "issue_ids": "[2]", "osm_url": "https://www.openstreetmap.org/way/30689486", "josm_url": "http://127.0.0.1:8111/load_object?new_layer=false&objects=w30689486", "id_url": "https://www.openstreetmap.org/edit?editor=id&way=30689486#map=20/45.4514657/9.1737913"}}, {"type": "Feature", "geometry": {"type": "Point", "coordinates": [9.1929777, 45.4637265]}, "properties": {"id": 30789348, "feat_type": "way", "quality_categories": "keys_without_wiki", "issue_ids": "[0]", "osm_url": "https://www.openstreetmap.org/way/30789348", "josm_url": "http://127.0.0.1:8111/load_object?new_layer=false&objects=w30789348", "id_url": "https://www.openstreetmap.org/edit?editor=id&way=30789348#map=20/45.4637265/9.1929777"}}, {"type": "Feature", "geometry": {"type": "Point", "coordinates": [9.1846745, 45.471505]}, "properties": {"id": 36196832, "feat_type": "way", "quality_categories": "keys_without_wiki", "issue_ids": "[0]", "osm_url": "https://www.openstreetmap.org/way/36196832", "josm_url": "http://127.0.0.1:8111/load_object?new_layer=false&objects=w36196832", "id_url": "https://www.openstreetmap.org/edit?editor=id&way=36196832#map=20/45.471505/9.1846745"}}, {"type": "Feature", "geometry": {"type": "Point", "coordinates": [9.1841417, 45.4671456]}, "properties": {"id": 37338857, "feat_type": "way", "quality_categories": "keys_without_wiki", "issue_ids": "[2]", "osm_url": "https://www.openstreetmap.org/way/37338857", "josm_url": "http://127.0.0.1:8111/load_object?new_layer=false&objects=w37338857", "id_url": "https://www.openstreetmap.org/edit?editor=id&way=37338857#map=20/45.4671456/9.1841417"}}, {"type": "Feature", "geometry": {"type": "Point", "coordinates": [9.184058679006968, 45.47373815]}, "properties": {"id": 38000392, "feat_type": "way", "quality_categories": "keys_without_wiki", "issue_ids": "[8]", "osm_url": "https://www.openstreetmap.org/way/38000392", "josm_url": "http://127.0.0.1:8111/load_object?new_layer=false&objects=w38000392", "id_url": "https://www.openstreetmap.org/edit?editor=id&way=38000392#map=20/45.47373815/9.184058679006968"}}, {"type": "Feature", "geometry": {"type": "Point", "coordinates": [9.1832593, 45.454986]}, "properties": {"id": 43015455, "feat_type": "way", "quality_categories": "keys_without_wiki", "issue_ids": "[2]", "osm_url": "https://www.openstreetmap.org/way/43015455", "josm_url": "http://127.0.0.1:8111/load_object?new_layer=false&objects=w43015455", "id_url": "https://www.openstreetmap.org/edit?editor=id&way=43015455#map=20/45.454986/9.1832593"}}, {"type": "Feature", "geometry": {"type": "Point", "coordinates": [9.1811412, 45.4534945]}, "properties": {"id": 44438444, "feat_type": "way", "quality_categories": "keys_without_wiki", "issue_ids": "[2]", "osm_url": "https://www.openstreetmap.org/way/44438444", "josm_url": "http://127.0.0.1:8111/load_object?new_layer=false&objects=w44438444", "id_url": "https://www.openstreetmap.org/edit?editor=id&way=44438444#map=20/45.4534945/9.1811412"}}, {"type": "Feature", "geometry": {"type": "Point", "coordinates": [9.1907556, 45.4648232]}, "properties": {"id": 44602670, "feat_type": "way", "quality_categories": "keys_without_wiki", "issue_ids": "[2]", "osm_url": "https://www.openstreetmap.org/way/44602670", "josm_url": "http://127.0.0.1:8111/load_object?new_layer=false&objects=w44602670", "id_url": "https://www.openstreetmap.org/edit?editor=id&way=44602670#map=20/45.4648232/9.1907556"}}, {"type": "Feature", "geometry": {"type": "Point", "coordinates": [9.1907524, 45.4646783]}, "properties": {"id": 44602671, "feat_type": "way", "quality_categories": "keys_without_wiki", "issue_ids": "[0]", "osm_url": "https://www.openstreetmap.org/way/44602671", "josm_url": "http://127.0.0.1:8111/load_object?new_layer=false&objects=w44602671", "id_url": "https://www.openstreetmap.org/edit?editor=id&way=44602671#map=20/45.4646783/9.1907524"}}, {"type": "Feature", "geometry": {"type": "Point", "coordinates": [9.1892124, 45.4656093]}, "properties": {"id": 57742687, "feat_type": "way", "quality_categories": "keys_without_wiki, missing_tags", "issue_ids": "[2, 7]", "osm_url": "https://www.openstreetmap.org/way/57742687", "josm_url": "http://127.0.0.1:8111/load_object?new_layer=false&objects=w57742687", "id_url": "https://www.openstreetmap.org/edit?editor=id&way=57742687#map=20/45.4656093/9.1892124"}}, {"type": "Feature", "geometry": {"type": "Point", "coordinates": [9.1801989, 45.4671696]}, "properties": {"id": 100183076, "feat_type": "way", "quality_categories": "keys_without_wiki", "issue_ids": "[0]", "osm_url": "https://www.openstreetmap.org/way/100183076", "josm_url": "http://127.0.0.1:8111/load_object?new_layer=false&objects=w100183076", "id_url": "https://www.openstreetmap.org/edit?editor=id&way=100183076#map=20/45.4671696/9.1801989"}}, {"type": "Feature", "geometry": {"type": "Point", "coordinates": [9.2257803, 45.5036321]}, "properties": {"id": 104365489, "feat_type": "way", "quality_categories": "keys_without_wiki", "issue_ids": "[0]", "osm_url": "https://www.openstreetmap.org/way/104365489", "josm_url": "http://127.0.0.1:8111/load_object?new_layer=false&objects=w104365489", "id_url": "https://www.openstreetmap.org/edit?editor=id&way=104365489#map=20/45.5036321/9.2257803"}}, {"type": "Feature", "geometry": {"type": "Point", "coordinates": [9.18825, 45.4675101]}, "properties": {"id": 111655183, "feat_type": "way", "quality_categories": "keys_without_wiki", "issue_ids": "[2]", "osm_url": "https://www.openstreetmap.org/way/111655183", "josm_url": "http://127.0.0.1:8111/load_object?new_layer=false&objects=w111655183", "id_url": "https://www.openstreetmap.org/edit?editor=id&way=111655183#map=20/45.4675101/9.18825"}}, {"type": "Feature", "geometry": {"type": "Point", "coordinates": [9.1746546, 45.5234333]}, "properties": {"id": 113517740, "feat_type": "way", "quality_categories": "keys_without_wiki", "issue_ids": "[0]", "osm_url": "https://www.openstreetmap.org/way/113517740", "josm_url": "http://127.0.0.1:8111/load_object?new_layer=false&objects=w113517740", "id_url": "https://www.openstreetmap.org/edit?editor=id&way=113517740#map=20/45.5234333/9.1746546"}}, {"type": "Feature", "geometry": {"type": "Point", "coordinates": [9.1744669, 45.5237348]}, "properties": {"id": 113517744, "feat_type": "way", "quality_categories": "keys_without_wiki, missing_tags, older_than_five_years", "issue_ids": "[0, 9, 7]", "osm_url": "https://www.openstreetmap.org/way/113517744", "josm_url": "http://127.0.0.1:8111/load_object?new_layer=false&objects=w113517744", "id_url": "https://www.openstreetmap.org/edit?editor=id&way=113517744#map=20/45.5237348/9.1744669"}}, {"type": "Feature", "geometry": {"type": "Point", "coordinates": [9.1871296, 45.4810755]}, "properties": {"id": 127168840, "feat_type": "way", "quality_categories": "keys_without_wiki", "issue_ids": "[0]", "osm_url": "https://www.openstreetmap.org/way/127168840", "josm_url": "http://127.0.0.1:8111/load_object?new_layer=false&objects=w127168840", "id_url": "https://www.openstreetmap.org/edit?editor=id&way=127168840#map=20/45.4810755/9.1871296"}}, {"type": "Feature", "geometry": {"type": "Point", "coordinates": [9.1874282, 45.4656144]}, "properties": {"id": 145014439, "feat_type": "way", "quality_categories": "keys_without_wiki", "issue_ids": "[2]", "osm_url": "https://www.openstreetmap.org/way/145014439", "josm_url": "http://127.0.0.1:8111/load_object?new_layer=false&objects=w145014439", "id_url": "https://www.openstreetmap.org/edit?editor=id&way=145014439#map=20/45.4656144/9.1874282"}}, {"type": "Feature", "geometry": {"type": "Point", "coordinates": [9.1970049, 45.4648839]}, "properties": {"id": 148358570, "feat_type": "way", "quality_categories": "keys_without_wiki", "issue_ids": "[10]", "osm_url": "https://www.openstreetmap.org/way/148358570", "josm_url": "http://127.0.0.1:8111/load_object?new_layer=false&objects=w148358570", "id_url": "https://www.openstreetmap.org/edit?editor=id&way=148358570#map=20/45.4648839/9.1970049"}}, {"type": "Feature", "geometry": {"type": "Point", "coordinates": [9.2033197, 45.421872]}, "properties": {"id": 158013425, "feat_type": "way", "quality_categories": "keys_without_wiki, missing_tags", "issue_ids": "[11, 7]", "osm_url": "https://www.openstreetmap.org/way/158013425", "josm_url": "http://127.0.0.1:8111/load_object?new_layer=false&objects=w158013425", "id_url": "https://www.openstreetmap.org/edit?editor=id&way=158013425#map=20/45.421872/9.2033197"}}, {"type": "Feature", "geometry": {"type": "Point", "coordinates": [9.1846562, 45.4668174]}, "properties": {"id": 163757293, "feat_type": "way", "quality_categories": "keys_without_wiki", "issue_ids": "[2]", "osm_url": "https://www.openstreetmap.org/way/163757293", "josm_url": "http://127.0.0.1:8111/load_object?new_layer=false&objects=w163757293", "id_url": "https://www.openstreetmap.org/edit?editor=id&way=163757293#map=20/45.4668174/9.1846562"}}, {"type": "Feature", "geometry": {"type": "Point", "coordinates": [9.1907635, 45.4656131]}, "properties": {"id": 163757303, "feat_type": "way", "quality_categories": "keys_without_wiki, missing_tags", "issue_ids": "[2, 7]", "osm_url": "https://www.openstreetmap.org/way/163757303", "josm_url": "http://127.0.0.1:8111/load_object?new_layer=false&objects=w163757303", "id_url": "https://www.openstreetmap.org/edit?editor=id&way=163757303#map=20/45.4656131/9.1907635"}}, {"type": "Feature", "geometry": {"type": "Point", "coordinates": [9.1810828, 45.4608293]}, "properties": {"id": 165990904, "feat_type": "way", "quality_categories": "keys_without_wiki", "issue_ids": "[0]", "osm_url": "https://www.openstreetmap.org/way/165990904", "josm_url": "http://127.0.0.1:8111/load_object?new_layer=false&objects=w165990904", "id_url": "https://www.openstreetmap.org/edit?editor=id&way=165990904#map=20/45.4608293/9.1810828"}}, {"type": "Feature", "geometry": {"type": "Point", "coordinates": [9.1727621, 45.4762648]}, "properties": {"id": 168770490, "feat_type": "way", "quality_categories": "keys_without_wiki", "issue_ids": "[5]", "osm_url": "https://www.openstreetmap.org/way/168770490", "josm_url": "http://127.0.0.1:8111/load_object?new_layer=false&objects=w168770490", "id_url": "https://www.openstreetmap.org/edit?editor=id&way=168770490#map=20/45.4762648/9.1727621"}}, {"type": "Feature", "geometry": {"type": "Point", "coordinates": [9.1846974, 45.4588125]}, "properties": {"id": 172640220, "feat_type": "way", "quality_categories": "keys_without_wiki", "issue_ids": "[2]", "osm_url": "https://www.openstreetmap.org/way/172640220", "josm_url": "http://127.0.0.1:8111/load_object?new_layer=false&objects=w172640220", "id_url": "https://www.openstreetmap.org/edit?editor=id&way=172640220#map=20/45.4588125/9.1846974"}}, {"type": "Feature", "geometry": {"type": "Point", "coordinates": [9.1856074, 45.4637317]}, "properties": {"id": 172824079, "feat_type": "way", "quality_categories": "keys_without_wiki", "issue_ids": "[0]", "osm_url": "https://www.openstreetmap.org/way/172824079", "josm_url": "http://127.0.0.1:8111/load_object?new_layer=false&objects=w172824079", "id_url": "https://www.openstreetmap.org/edit?editor=id&way=172824079#map=20/45.4637317/9.1856074"}}, {"type": "Feature", "geometry": {"type": "Point", "coordinates": [9.2225811, 45.4756334]}, "properties": {"id": 173087851, "feat_type": "way", "quality_categories": "keys_without_wiki", "issue_ids": "[0]", "osm_url": "https://www.openstreetmap.org/way/173087851", "josm_url": "http://127.0.0.1:8111/load_object?new_layer=false&objects=w173087851", "id_url": "https://www.openstreetmap.org/edit?editor=id&way=173087851#map=20/45.4756334/9.2225811"}}, {"type": "Feature", "geometry": {"type": "Point", "coordinates": [9.1961981, 45.4561388]}, "properties": {"id": 183876914, "feat_type": "way", "quality_categories": "keys_without_wiki", "issue_ids": "[2]", "osm_url": "https://www.openstreetmap.org/way/183876914", "josm_url": "http://127.0.0.1:8111/load_object?new_layer=false&objects=w183876914", "id_url": "https://www.openstreetmap.org/edit?editor=id&way=183876914#map=20/45.4561388/9.1961981"}}, {"type": "Feature", "geometry": {"type": "Point", "coordinates": [9.1893096, 45.4632922]}, "properties": {"id": 184220343, "feat_type": "way", "quality_categories": "keys_without_wiki", "issue_ids": "[2]", "osm_url": "https://www.openstreetmap.org/way/184220343", "josm_url": "http://127.0.0.1:8111/load_object?new_layer=false&objects=w184220343", "id_url": "https://www.openstreetmap.org/edit?editor=id&way=184220343#map=20/45.4632922/9.1893096"}}, {"type": "Feature", "geometry": {"type": "Point", "coordinates": [9.1716872, 45.4760644]}, "properties": {"id": 188280033, "feat_type": "way", "quality_categories": "keys_without_wiki", "issue_ids": "[2]", "osm_url": "https://www.openstreetmap.org/way/188280033", "josm_url": "http://127.0.0.1:8111/load_object?new_layer=false&objects=w188280033", "id_url": "https://www.openstreetmap.org/edit?editor=id&way=188280033#map=20/45.4760644/9.1716872"}}, {"type": "Feature", "geometry": {"type": "Point", "coordinates": [9.17159, 45.4763223]}, "properties": {"id": 188742270, "feat_type": "way", "quality_categories": "keys_without_wiki", "issue_ids": "[2]", "osm_url": "https://www.openstreetmap.org/way/188742270", "josm_url": "http://127.0.0.1:8111/load_object?new_layer=false&objects=w188742270", "id_url": "https://www.openstreetmap.org/edit?editor=id&way=188742270#map=20/45.4763223/9.17159"}}, {"type": "Feature", "geometry": {"type": "Point", "coordinates": [9.1705232, 45.4771346]}, "properties": {"id": 191147357, "feat_type": "way", "quality_categories": "keys_without_wiki", "issue_ids": "[2]", "osm_url": "https://www.openstreetmap.org/way/191147357", "josm_url": "http://127.0.0.1:8111/load_object?new_layer=false&objects=w191147357", "id_url": "https://www.openstreetmap.org/edit?editor=id&way=191147357#map=20/45.4771346/9.1705232"}}, {"type": "Feature", "geometry": {"type": "Point", "coordinates": [9.1937011, 45.4633581]}, "properties": {"id": 194011466, "feat_type": "way", "quality_categories": "keys_without_wiki", "issue_ids": "[2]", "osm_url": "https://www.openstreetmap.org/way/194011466", "josm_url": "http://127.0.0.1:8111/load_object?new_layer=false&objects=w194011466", "id_url": "https://www.openstreetmap.org/edit?editor=id&way=194011466#map=20/45.4633581/9.1937011"}}, {"type": "Feature", "geometry": {"type": "Point", "coordinates": [9.1893518, 45.4791711]}, "properties": {"id": 206111233, "feat_type": "way", "quality_categories": "keys_without_wiki", "issue_ids": "[0]", "osm_url": "https://www.openstreetmap.org/way/206111233", "josm_url": "http://127.0.0.1:8111/load_object?new_layer=false&objects=w206111233", "id_url": "https://www.openstreetmap.org/edit?editor=id&way=206111233#map=20/45.4791711/9.1893518"}}, {"type": "Feature", "geometry": {"type": "Point", "coordinates": [9.2297939, 45.4709318]}, "properties": {"id": 255358214, "feat_type": "way", "quality_categories": "keys_without_wiki", "issue_ids": "[2]", "osm_url": "https://www.openstreetmap.org/way/255358214", "josm_url": "http://127.0.0.1:8111/load_object?new_layer=false&objects=w255358214", "id_url": "https://www.openstreetmap.org/edit?editor=id&way=255358214#map=20/45.4709318/9.2297939"}}, {"type": "Feature", "geometry": {"type": "Point", "coordinates": [9.1462995, 45.466938]}, "properties": {"id": 260647823, "feat_type": "way", "quality_categories": "keys_without_wiki", "issue_ids": "[2]", "osm_url": "https://www.openstreetmap.org/way/260647823", "josm_url": "http://127.0.0.1:8111/load_object?new_layer=false&objects=w260647823", "id_url": "https://www.openstreetmap.org/edit?editor=id&way=260647823#map=20/45.466938/9.1462995"}}, {"type": "Feature", "geometry": {"type": "Point", "coordinates": [9.1817397, 45.4537533]}, "properties": {"id": 261934242, "feat_type": "way", "quality_categories": "keys_without_wiki", "issue_ids": "[2]", "osm_url": "https://www.openstreetmap.org/way/261934242", "josm_url": "http://127.0.0.1:8111/load_object?new_layer=false&objects=w261934242", "id_url": "https://www.openstreetmap.org/edit?editor=id&way=261934242#map=20/45.4537533/9.1817397"}}, {"type": "Feature", "geometry": {"type": "Point", "coordinates": [9.1828316, 45.4554008]}, "properties": {"id": 262212060, "feat_type": "way", "quality_categories": "keys_without_wiki", "issue_ids": "[0]", "osm_url": "https://www.openstreetmap.org/way/262212060", "josm_url": "http://127.0.0.1:8111/load_object?new_layer=false&objects=w262212060", "id_url": "https://www.openstreetmap.org/edit?editor=id&way=262212060#map=20/45.4554008/9.1828316"}}, {"type": "Feature", "geometry": {"type": "Point", "coordinates": [9.174372484906886, 45.528533100000004]}, "properties": {"id": 267214813, "feat_type": "way", "quality_categories": "keys_without_wiki, wrong_mispelled_or_unlisted_values", "issue_ids": "[0, 12]", "osm_url": "https://www.openstreetmap.org/way/267214813", "josm_url": "http://127.0.0.1:8111/load_object?new_layer=false&objects=w267214813", "id_url": "https://www.openstreetmap.org/edit?editor=id&way=267214813#map=20/45.528533100000004/9.174372484906886"}}, {"type": "Feature", "geometry": {"type": "Point", "coordinates": [9.223068, 45.5039]}, "properties": {"id": 269223235, "feat_type": "way", "quality_categories": "keys_without_wiki", "issue_ids": "[0]", "osm_url": "https://www.openstreetmap.org/way/269223235", "josm_url": "http://127.0.0.1:8111/load_object?new_layer=false&objects=w269223235", "id_url": "https://www.openstreetmap.org/edit?editor=id&way=269223235#map=20/45.5039/9.223068"}}, {"type": "Feature", "geometry": {"type": "Point", "coordinates": [9.242988, 45.5073781]}, "properties": {"id": 269236844, "feat_type": "way", "quality_categories": "keys_without_wiki", "issue_ids": "[2]", "osm_url": "https://www.openstreetmap.org/way/269236844", "josm_url": "http://127.0.0.1:8111/load_object?new_layer=false&objects=w269236844", "id_url": "https://www.openstreetmap.org/edit?editor=id&way=269236844#map=20/45.5073781/9.242988"}}, {"type": "Feature", "geometry": {"type": "Point", "coordinates": [9.2351521, 45.5044641]}, "properties": {"id": 269236847, "feat_type": "way", "quality_categories": "keys_without_wiki", "issue_ids": "[2]", "osm_url": "https://www.openstreetmap.org/way/269236847", "josm_url": "http://127.0.0.1:8111/load_object?new_layer=false&objects=w269236847", "id_url": "https://www.openstreetmap.org/edit?editor=id&way=269236847#map=20/45.5044641/9.2351521"}}, {"type": "Feature", "geometry": {"type": "Point", "coordinates": [9.2320655, 45.5040432]}, "properties": {"id": 269236854, "feat_type": "way", "quality_categories": "keys_without_wiki", "issue_ids": "[2]", "osm_url": "https://www.openstreetmap.org/way/269236854", "josm_url": "http://127.0.0.1:8111/load_object?new_layer=false&objects=w269236854", "id_url": "https://www.openstreetmap.org/edit?editor=id&way=269236854#map=20/45.5040432/9.2320655"}}, {"type": "Feature", "geometry": {"type": "Point", "coordinates": [9.2299567, 45.5036907]}, "properties": {"id": 269236856, "feat_type": "way", "quality_categories": "keys_without_wiki", "issue_ids": "[2]", "osm_url": "https://www.openstreetmap.org/way/269236856", "josm_url": "http://127.0.0.1:8111/load_object?new_layer=false&objects=w269236856", "id_url": "https://www.openstreetmap.org/edit?editor=id&way=269236856#map=20/45.5036907/9.2299567"}}, {"type": "Feature", "geometry": {"type": "Point", "coordinates": [9.174415, 45.5234113]}, "properties": {"id": 269859606, "feat_type": "way", "quality_categories": "keys_without_wiki, missing_tags, older_than_five_years", "issue_ids": "[0, 13, 7]", "osm_url": "https://www.openstreetmap.org/way/269859606", "josm_url": "http://127.0.0.1:8111/load_object?new_layer=false&objects=w269859606", "id_url": "https://www.openstreetmap.org/edit?editor=id&way=269859606#map=20/45.5234113/9.174415"}}, {"type": "Feature", "geometry": {"type": "Point", "coordinates": [9.1898568, 45.52583]}, "properties": {"id": 269859660, "feat_type": "way", "quality_categories": "keys_without_wiki, older_than_five_years, wrong_mispelled_or_unlisted_values", "issue_ids": "[14, 15, 16]", "osm_url": "https://www.openstreetmap.org/way/269859660", "josm_url": "http://127.0.0.1:8111/load_object?new_layer=false&objects=w269859660", "id_url": "https://www.openstreetmap.org/edit?editor=id&way=269859660#map=20/45.52583/9.1898568"}}, {"type": "Feature", "geometry": {"type": "Point", "coordinates": [9.2455174, 45.5085594]}, "properties": {"id": 270437034, "feat_type": "way", "quality_categories": "keys_without_wiki", "issue_ids": "[2]", "osm_url": "https://www.openstreetmap.org/way/270437034", "josm_url": "http://127.0.0.1:8111/load_object?new_layer=false&objects=w270437034", "id_url": "https://www.openstreetmap.org/edit?editor=id&way=270437034#map=20/45.5085594/9.2455174"}}, {"type": "Feature", "geometry": {"type": "Point", "coordinates": [9.2042397, 45.4574307]}, "properties": {"id": 272783623, "feat_type": "way", "quality_categories": "keys_without_wiki, wrong_mispelled_or_unlisted_values", "issue_ids": "[2, 17]", "osm_url": "https://www.openstreetmap.org/way/272783623", "josm_url": "http://127.0.0.1:8111/load_object?new_layer=false&objects=w272783623", "id_url": "https://www.openstreetmap.org/edit?editor=id&way=272783623#map=20/45.4574307/9.2042397"}}, {"type": "Feature", "geometry": {"type": "Point", "coordinates": [9.2029062, 45.4572156]}, "properties": {"id": 272790957, "feat_type": "way", "quality_categories": "keys_without_wiki, wrong_mispelled_or_unlisted_values", "issue_ids": "[2, 17]", "osm_url": "https://www.openstreetmap.org/way/272790957", "josm_url": "http://127.0.0.1:8111/load_object?new_layer=false&objects=w272790957", "id_url": "https://www.openstreetmap.org/edit?editor=id&way=272790957#map=20/45.4572156/9.2029062"}}, {"type": "Feature", "geometry": {"type": "Point", "coordinates": [9.1803191, 45.4649704]}, "properties": {"id": 273714459, "feat_type": "way", "quality_categories": "keys_without_wiki, older_than_five_years", "issue_ids": "[2, 3]", "osm_url": "https://www.openstreetmap.org/way/273714459", "josm_url": "http://127.0.0.1:8111/load_object?new_layer=false&objects=w273714459", "id_url": "https://www.openstreetmap.org/edit?editor=id&way=273714459#map=20/45.4649704/9.1803191"}}, {"type": "Feature", "geometry": {"type": "Point", "coordinates": [9.1884341, 45.4674238]}, "properties": {"id": 273969557, "feat_type": "way", "quality_categories": "keys_without_wiki", "issue_ids": "[2]", "osm_url": "https://www.openstreetmap.org/way/273969557", "josm_url": "http://127.0.0.1:8111/load_object?new_layer=false&objects=w273969557", "id_url": "https://www.openstreetmap.org/edit?editor=id&way=273969557#map=20/45.4674238/9.1884341"}}, {"type": "Feature", "geometry": {"type": "Point", "coordinates": [9.1875646, 45.4653341]}, "properties": {"id": 274115720, "feat_type": "way", "quality_categories": "keys_without_wiki", "issue_ids": "[2]", "osm_url": "https://www.openstreetmap.org/way/274115720", "josm_url": "http://127.0.0.1:8111/load_object?new_layer=false&objects=w274115720", "id_url": "https://www.openstreetmap.org/edit?editor=id&way=274115720#map=20/45.4653341/9.1875646"}}, {"type": "Feature", "geometry": {"type": "Point", "coordinates": [9.2014815, 45.4569773]}, "properties": {"id": 274781611, "feat_type": "way", "quality_categories": "keys_without_wiki, wrong_mispelled_or_unlisted_values", "issue_ids": "[2, 17]", "osm_url": "https://www.openstreetmap.org/way/274781611", "josm_url": "http://127.0.0.1:8111/load_object?new_layer=false&objects=w274781611", "id_url": "https://www.openstreetmap.org/edit?editor=id&way=274781611#map=20/45.4569773/9.2014815"}}, {"type": "Feature", "geometry": {"type": "Point", "coordinates": [9.1919747, 45.4652957]}, "properties": {"id": 274829008, "feat_type": "way", "quality_categories": "keys_without_wiki", "issue_ids": "[2]", "osm_url": "https://www.openstreetmap.org/way/274829008", "josm_url": "http://127.0.0.1:8111/load_object?new_layer=false&objects=w274829008", "id_url": "https://www.openstreetmap.org/edit?editor=id&way=274829008#map=20/45.4652957/9.1919747"}}, {"type": "Feature", "geometry": {"type": "Point", "coordinates": [9.1907559, 45.4649102]}, "properties": {"id": 274829009, "feat_type": "way", "quality_categories": "keys_without_wiki, older_than_five_years", "issue_ids": "[2, 18]", "osm_url": "https://www.openstreetmap.org/way/274829009", "josm_url": "http://127.0.0.1:8111/load_object?new_layer=false&objects=w274829009", "id_url": "https://www.openstreetmap.org/edit?editor=id&way=274829009#map=20/45.4649102/9.1907559"}}, {"type": "Feature", "geometry": {"type": "Point", "coordinates": [9.1834757, 45.4625264]}, "properties": {"id": 274984849, "feat_type": "way", "quality_categories": "keys_without_wiki", "issue_ids": "[2]", "osm_url": "https://www.openstreetmap.org/way/274984849", "josm_url": "http://127.0.0.1:8111/load_object?new_layer=false&objects=w274984849", "id_url": "https://www.openstreetmap.org/edit?editor=id&way=274984849#map=20/45.4625264/9.1834757"}}, {"type": "Feature", "geometry": {"type": "Point", "coordinates": [9.184115, 45.4621236]}, "properties": {"id": 274984850, "feat_type": "way", "quality_categories": "keys_without_wiki", "issue_ids": "[2]", "osm_url": "https://www.openstreetmap.org/way/274984850", "josm_url": "http://127.0.0.1:8111/load_object?new_layer=false&objects=w274984850", "id_url": "https://www.openstreetmap.org/edit?editor=id&way=274984850#map=20/45.4621236/9.184115"}}, {"type": "Feature", "geometry": {"type": "Point", "coordinates": [9.1830546, 45.4627761]}, "properties": {"id": 274984851, "feat_type": "way", "quality_categories": "keys_without_wiki", "issue_ids": "[2]", "osm_url": "https://www.openstreetmap.org/way/274984851", "josm_url": "http://127.0.0.1:8111/load_object?new_layer=false&objects=w274984851", "id_url": "https://www.openstreetmap.org/edit?editor=id&way=274984851#map=20/45.4627761/9.1830546"}}, {"type": "Feature", "geometry": {"type": "Point", "coordinates": [9.1747877, 45.4516616]}, "properties": {"id": 277516085, "feat_type": "way", "quality_categories": "keys_without_wiki", "issue_ids": "[2]", "osm_url": "https://www.openstreetmap.org/way/277516085", "josm_url": "http://127.0.0.1:8111/load_object?new_layer=false&objects=w277516085", "id_url": "https://www.openstreetmap.org/edit?editor=id&way=277516085#map=20/45.4516616/9.1747877"}}, {"type": "Feature", "geometry": {"type": "Point", "coordinates": [9.1830635, 45.4584897]}, "properties": {"id": 279159122, "feat_type": "way", "quality_categories": "keys_without_wiki", "issue_ids": "[0]", "osm_url": "https://www.openstreetmap.org/way/279159122", "josm_url": "http://127.0.0.1:8111/load_object?new_layer=false&objects=w279159122", "id_url": "https://www.openstreetmap.org/edit?editor=id&way=279159122#map=20/45.4584897/9.1830635"}}, {"type": "Feature", "geometry": {"type": "Point", "coordinates": [9.1711849, 45.4766308]}, "properties": {"id": 285282333, "feat_type": "way", "quality_categories": "keys_without_wiki", "issue_ids": "[2]", "osm_url": "https://www.openstreetmap.org/way/285282333", "josm_url": "http://127.0.0.1:8111/load_object?new_layer=false&objects=w285282333", "id_url": "https://www.openstreetmap.org/edit?editor=id&way=285282333#map=20/45.4766308/9.1711849"}}, {"type": "Feature", "geometry": {"type": "Point", "coordinates": [9.1716373, 45.4753875]}, "properties": {"id": 285282337, "feat_type": "way", "quality_categories": "keys_without_wiki", "issue_ids": "[2]", "osm_url": "https://www.openstreetmap.org/way/285282337", "josm_url": "http://127.0.0.1:8111/load_object?new_layer=false&objects=w285282337", "id_url": "https://www.openstreetmap.org/edit?editor=id&way=285282337#map=20/45.4753875/9.1716373"}}, {"type": "Feature", "geometry": {"type": "Point", "coordinates": [9.1873246, 45.4651718]}, "properties": {"id": 286239217, "feat_type": "way", "quality_categories": "keys_without_wiki", "issue_ids": "[0]", "osm_url": "https://www.openstreetmap.org/way/286239217", "josm_url": "http://127.0.0.1:8111/load_object?new_layer=false&objects=w286239217", "id_url": "https://www.openstreetmap.org/edit?editor=id&way=286239217#map=20/45.4651718/9.1873246"}}, {"type": "Feature", "geometry": {"type": "Point", "coordinates": [9.1779707, 45.4657598]}, "properties": {"id": 286242733, "feat_type": "way", "quality_categories": "keys_without_wiki", "issue_ids": "[2]", "osm_url": "https://www.openstreetmap.org/way/286242733", "josm_url": "http://127.0.0.1:8111/load_object?new_layer=false&objects=w286242733", "id_url": "https://www.openstreetmap.org/edit?editor=id&way=286242733#map=20/45.4657598/9.1779707"}}, {"type": "Feature", "geometry": {"type": "Point", "coordinates": [9.1803114, 45.4531496]}, "properties": {"id": 286590801, "feat_type": "way", "quality_categories": "keys_without_wiki, older_than_five_years", "issue_ids": "[2, 19]", "osm_url": "https://www.openstreetmap.org/way/286590801", "josm_url": "http://127.0.0.1:8111/load_object?new_layer=false&objects=w286590801", "id_url": "https://www.openstreetmap.org/edit?editor=id&way=286590801#map=20/45.4531496/9.1803114"}}, {"type": "Feature", "geometry": {"type": "Point", "coordinates": [9.1804294, 45.4539137]}, "properties": {"id": 286590825, "feat_type": "way", "quality_categories": "keys_without_wiki", "issue_ids": "[2]", "osm_url": "https://www.openstreetmap.org/way/286590825", "josm_url": "http://127.0.0.1:8111/load_object?new_layer=false&objects=w286590825", "id_url": "https://www.openstreetmap.org/edit?editor=id&way=286590825#map=20/45.4539137/9.1804294"}}, {"type": "Feature", "geometry": {"type": "Point", "coordinates": [9.1805104, 45.4533293]}, "properties": {"id": 286590850, "feat_type": "way", "quality_categories": "keys_without_wiki", "issue_ids": "[2]", "osm_url": "https://www.openstreetmap.org/way/286590850", "josm_url": "http://127.0.0.1:8111/load_object?new_layer=false&objects=w286590850", "id_url": "https://www.openstreetmap.org/edit?editor=id&way=286590850#map=20/45.4533293/9.1805104"}}, {"type": "Feature", "geometry": {"type": "Point", "coordinates": [9.1827793, 45.455035]}, "properties": {"id": 286590873, "feat_type": "way", "quality_categories": "keys_without_wiki", "issue_ids": "[0]", "osm_url": "https://www.openstreetmap.org/way/286590873", "josm_url": "http://127.0.0.1:8111/load_object?new_layer=false&objects=w286590873", "id_url": "https://www.openstreetmap.org/edit?editor=id&way=286590873#map=20/45.455035/9.1827793"}}, {"type": "Feature", "geometry": {"type": "Point", "coordinates": [9.182505, 45.4541199]}, "properties": {"id": 286590874, "feat_type": "way", "quality_categories": "keys_without_wiki", "issue_ids": "[2]", "osm_url": "https://www.openstreetmap.org/way/286590874", "josm_url": "http://127.0.0.1:8111/load_object?new_layer=false&objects=w286590874", "id_url": "https://www.openstreetmap.org/edit?editor=id&way=286590874#map=20/45.4541199/9.182505"}}, {"type": "Feature", "geometry": {"type": "Point", "coordinates": [9.1965517, 45.4520115]}, "properties": {"id": 286603668, "feat_type": "way", "quality_categories": "keys_without_wiki", "issue_ids": "[2]", "osm_url": "https://www.openstreetmap.org/way/286603668", "josm_url": "http://127.0.0.1:8111/load_object?new_layer=false&objects=w286603668", "id_url": "https://www.openstreetmap.org/edit?editor=id&way=286603668#map=20/45.4520115/9.1965517"}}, {"type": "Feature", "geometry": {"type": "Point", "coordinates": [9.1993584, 45.456646]}, "properties": {"id": 286603671, "feat_type": "way", "quality_categories": "keys_without_wiki, wrong_mispelled_or_unlisted_values", "issue_ids": "[2, 17]", "osm_url": "https://www.openstreetmap.org/way/286603671", "josm_url": "http://127.0.0.1:8111/load_object?new_layer=false&objects=w286603671", "id_url": "https://www.openstreetmap.org/edit?editor=id&way=286603671#map=20/45.456646/9.1993584"}}, {"type": "Feature", "geometry": {"type": "Point", "coordinates": [9.2225561, 45.475655]}, "properties": {"id": 289093127, "feat_type": "way", "quality_categories": "keys_without_wiki", "issue_ids": "[0]", "osm_url": "https://www.openstreetmap.org/way/289093127", "josm_url": "http://127.0.0.1:8111/load_object?new_layer=false&objects=w289093127", "id_url": "https://www.openstreetmap.org/edit?editor=id&way=289093127#map=20/45.475655/9.2225561"}}, {"type": "Feature", "geometry": {"type": "Point", "coordinates": [9.1851994, 45.4659945]}, "properties": {"id": 289406968, "feat_type": "way", "quality_categories": "keys_without_wiki", "issue_ids": "[2]", "osm_url": "https://www.openstreetmap.org/way/289406968", "josm_url": "http://127.0.0.1:8111/load_object?new_layer=false&objects=w289406968", "id_url": "https://www.openstreetmap.org/edit?editor=id&way=289406968#map=20/45.4659945/9.1851994"}}, {"type": "Feature", "geometry": {"type": "Point", "coordinates": [9.183949, 45.4670198]}, "properties": {"id": 294573536, "feat_type": "way", "quality_categories": "keys_without_wiki", "issue_ids": "[2]", "osm_url": "https://www.openstreetmap.org/way/294573536", "josm_url": "http://127.0.0.1:8111/load_object?new_layer=false&objects=w294573536", "id_url": "https://www.openstreetmap.org/edit?editor=id&way=294573536#map=20/45.4670198/9.183949"}}, {"type": "Feature", "geometry": {"type": "Point", "coordinates": [9.185587, 45.4657354]}, "properties": {"id": 326537448, "feat_type": "way", "quality_categories": "keys_without_wiki", "issue_ids": "[2]", "osm_url": "https://www.openstreetmap.org/way/326537448", "josm_url": "http://127.0.0.1:8111/load_object?new_layer=false&objects=w326537448", "id_url": "https://www.openstreetmap.org/edit?editor=id&way=326537448#map=20/45.4657354/9.185587"}}, {"type": "Feature", "geometry": {"type": "Point", "coordinates": [9.2396996, 45.5058375]}, "properties": {"id": 327977914, "feat_type": "way", "quality_categories": "keys_without_wiki", "issue_ids": "[2]", "osm_url": "https://www.openstreetmap.org/way/327977914", "josm_url": "http://127.0.0.1:8111/load_object?new_layer=false&objects=w327977914", "id_url": "https://www.openstreetmap.org/edit?editor=id&way=327977914#map=20/45.5058375/9.2396996"}}, {"type": "Feature", "geometry": {"type": "Point", "coordinates": [9.1845732, 45.4664901]}, "properties": {"id": 338328046, "feat_type": "way", "quality_categories": "keys_without_wiki", "issue_ids": "[0]", "osm_url": "https://www.openstreetmap.org/way/338328046", "josm_url": "http://127.0.0.1:8111/load_object?new_layer=false&objects=w338328046", "id_url": "https://www.openstreetmap.org/edit?editor=id&way=338328046#map=20/45.4664901/9.1845732"}}, {"type": "Feature", "geometry": {"type": "Point", "coordinates": [9.1827646, 45.4678716]}, "properties": {"id": 338328048, "feat_type": "way", "quality_categories": "keys_without_wiki", "issue_ids": "[0]", "osm_url": "https://www.openstreetmap.org/way/338328048", "josm_url": "http://127.0.0.1:8111/load_object?new_layer=false&objects=w338328048", "id_url": "https://www.openstreetmap.org/edit?editor=id&way=338328048#map=20/45.4678716/9.1827646"}}, {"type": "Feature", "geometry": {"type": "Point", "coordinates": [9.211625029745171, 45.50227005]}, "properties": {"id": 340440847, "feat_type": "way", "quality_categories": "keys_without_wiki", "issue_ids": "[0]", "osm_url": "https://www.openstreetmap.org/way/340440847", "josm_url": "http://127.0.0.1:8111/load_object?new_layer=false&objects=w340440847", "id_url": "https://www.openstreetmap.org/edit?editor=id&way=340440847#map=20/45.50227005/9.211625029745171"}}, {"type": "Feature", "geometry": {"type": "Point", "coordinates": [9.1876296, 45.4650538]}, "properties": {"id": 352982541, "feat_type": "way", "quality_categories": "keys_without_wiki", "issue_ids": "[0]", "osm_url": "https://www.openstreetmap.org/way/352982541", "josm_url": "http://127.0.0.1:8111/load_object?new_layer=false&objects=w352982541", "id_url": "https://www.openstreetmap.org/edit?editor=id&way=352982541#map=20/45.4650538/9.1876296"}}, {"type": "Feature", "geometry": {"type": "Point", "coordinates": [9.1833764, 45.4733745]}, "properties": {"id": 359602400, "feat_type": "way", "quality_categories": "keys_without_wiki", "issue_ids": "[0]", "osm_url": "https://www.openstreetmap.org/way/359602400", "josm_url": "http://127.0.0.1:8111/load_object?new_layer=false&objects=w359602400", "id_url": "https://www.openstreetmap.org/edit?editor=id&way=359602400#map=20/45.4733745/9.1833764"}}, {"type": "Feature", "geometry": {"type": "Point", "coordinates": [9.1699429, 45.4740637]}, "properties": {"id": 369303449, "feat_type": "way", "quality_categories": "keys_without_wiki, older_than_five_years", "issue_ids": "[4, 20]", "osm_url": "https://www.openstreetmap.org/way/369303449", "josm_url": "http://127.0.0.1:8111/load_object?new_layer=false&objects=w369303449", "id_url": "https://www.openstreetmap.org/edit?editor=id&way=369303449#map=20/45.4740637/9.1699429"}}, {"type": "Feature", "geometry": {"type": "Point", "coordinates": [9.2199124, 45.4504947]}, "properties": {"id": 401248527, "feat_type": "way", "quality_categories": "keys_without_wiki", "issue_ids": "[11]", "osm_url": "https://www.openstreetmap.org/way/401248527", "josm_url": "http://127.0.0.1:8111/load_object?new_layer=false&objects=w401248527", "id_url": "https://www.openstreetmap.org/edit?editor=id&way=401248527#map=20/45.4504947/9.2199124"}}, {"type": "Feature", "geometry": {"type": "Point", "coordinates": [9.2200902, 45.4503389]}, "properties": {"id": 401248529, "feat_type": "way", "quality_categories": "keys_without_wiki", "issue_ids": "[11]", "osm_url": "https://www.openstreetmap.org/way/401248529", "josm_url": "http://127.0.0.1:8111/load_object?new_layer=false&objects=w401248529", "id_url": "https://www.openstreetmap.org/edit?editor=id&way=401248529#map=20/45.4503389/9.2200902"}}, {"type": "Feature", "geometry": {"type": "Point", "coordinates": [9.1831463, 45.4575324]}, "properties": {"id": 403671985, "feat_type": "way", "quality_categories": "keys_without_wiki, missing_tags", "issue_ids": "[0, 7]", "osm_url": "https://www.openstreetmap.org/way/403671985", "josm_url": "http://127.0.0.1:8111/load_object?new_layer=false&objects=w403671985", "id_url": "https://www.openstreetmap.org/edit?editor=id&way=403671985#map=20/45.4575324/9.1831463"}}, {"type": "Feature", "geometry": {"type": "Point", "coordinates": [9.1803458, 45.4533736]}, "properties": {"id": 404395780, "feat_type": "way", "quality_categories": "keys_without_wiki, older_than_five_years", "issue_ids": "[2, 19]", "osm_url": "https://www.openstreetmap.org/way/404395780", "josm_url": "http://127.0.0.1:8111/load_object?new_layer=false&objects=w404395780", "id_url": "https://www.openstreetmap.org/edit?editor=id&way=404395780#map=20/45.4533736/9.1803458"}}, {"type": "Feature", "geometry": {"type": "Point", "coordinates": [9.181751, 45.460387]}, "properties": {"id": 498384969, "feat_type": "way", "quality_categories": "keys_without_wiki", "issue_ids": "[0]", "osm_url": "https://www.openstreetmap.org/way/498384969", "josm_url": "http://127.0.0.1:8111/load_object?new_layer=false&objects=w498384969", "id_url": "https://www.openstreetmap.org/edit?editor=id&way=498384969#map=20/45.460387/9.181751"}}, {"type": "Feature", "geometry": {"type": "Point", "coordinates": [9.1835483, 45.4612232]}, "properties": {"id": 498384972, "feat_type": "way", "quality_categories": "keys_without_wiki, missing_tags", "issue_ids": "[2, 7]", "osm_url": "https://www.openstreetmap.org/way/498384972", "josm_url": "http://127.0.0.1:8111/load_object?new_layer=false&objects=w498384972", "id_url": "https://www.openstreetmap.org/edit?editor=id&way=498384972#map=20/45.4612232/9.1835483"}}, {"type": "Feature", "geometry": {"type": "Point", "coordinates": [9.1837444, 45.4608516]}, "properties": {"id": 498520137, "feat_type": "way", "quality_categories": "keys_without_wiki", "issue_ids": "[2]", "osm_url": "https://www.openstreetmap.org/way/498520137", "josm_url": "http://127.0.0.1:8111/load_object?new_layer=false&objects=w498520137", "id_url": "https://www.openstreetmap.org/edit?editor=id&way=498520137#map=20/45.4608516/9.1837444"}}, {"type": "Feature", "geometry": {"type": "Point", "coordinates": [9.1866196, 45.4654358]}, "properties": {"id": 529548208, "feat_type": "way", "quality_categories": "keys_without_wiki", "issue_ids": "[0]", "osm_url": "https://www.openstreetmap.org/way/529548208", "josm_url": "http://127.0.0.1:8111/load_object?new_layer=false&objects=w529548208", "id_url": "https://www.openstreetmap.org/edit?editor=id&way=529548208#map=20/45.4654358/9.1866196"}}, {"type": "Feature", "geometry": {"type": "Point", "coordinates": [9.1853667, 45.4716321]}, "properties": {"id": 560271527, "feat_type": "way", "quality_categories": "keys_without_wiki", "issue_ids": "[0]", "osm_url": "https://www.openstreetmap.org/way/560271527", "josm_url": "http://127.0.0.1:8111/load_object?new_layer=false&objects=w560271527", "id_url": "https://www.openstreetmap.org/edit?editor=id&way=560271527#map=20/45.4716321/9.1853667"}}, {"type": "Feature", "geometry": {"type": "Point", "coordinates": [9.1891653, 45.4785626]}, "properties": {"id": 586583607, "feat_type": "way", "quality_categories": "keys_without_wiki", "issue_ids": "[0]", "osm_url": "https://www.openstreetmap.org/way/586583607", "josm_url": "http://127.0.0.1:8111/load_object?new_layer=false&objects=w586583607", "id_url": "https://www.openstreetmap.org/edit?editor=id&way=586583607#map=20/45.4785626/9.1891653"}}, {"type": "Feature", "geometry": {"type": "Point", "coordinates": [9.1831431, 45.4675737]}, "properties": {"id": 621980431, "feat_type": "way", "quality_categories": "keys_without_wiki", "issue_ids": "[0]", "osm_url": "https://www.openstreetmap.org/way/621980431", "josm_url": "http://127.0.0.1:8111/load_object?new_layer=false&objects=w621980431", "id_url": "https://www.openstreetmap.org/edit?editor=id&way=621980431#map=20/45.4675737/9.1831431"}}, {"type": "Feature", "geometry": {"type": "Point", "coordinates": [9.237772, 45.5049665]}, "properties": {"id": 624167487, "feat_type": "way", "quality_categories": "keys_without_wiki", "issue_ids": "[2]", "osm_url": "https://www.openstreetmap.org/way/624167487", "josm_url": "http://127.0.0.1:8111/load_object?new_layer=false&objects=w624167487", "id_url": "https://www.openstreetmap.org/edit?editor=id&way=624167487#map=20/45.5049665/9.237772"}}, {"type": "Feature", "geometry": {"type": "Point", "coordinates": [9.1717761, 45.4762626]}, "properties": {"id": 915113199, "feat_type": "way", "quality_categories": "keys_without_wiki", "issue_ids": "[5]", "osm_url": "https://www.openstreetmap.org/way/915113199", "josm_url": "http://127.0.0.1:8111/load_object?new_layer=false&objects=w915113199", "id_url": "https://www.openstreetmap.org/edit?editor=id&way=915113199#map=20/45.4762626/9.1717761"}}, {"type": "Feature", "geometry": {"type": "Point", "coordinates": [9.1731526, 45.4761758]}, "properties": {"id": 915115786, "feat_type": "way", "quality_categories": "keys_without_wiki", "issue_ids": "[5]", "osm_url": "https://www.openstreetmap.org/way/915115786", "josm_url": "http://127.0.0.1:8111/load_object?new_layer=false&objects=w915115786", "id_url": "https://www.openstreetmap.org/edit?editor=id&way=915115786#map=20/45.4761758/9.1731526"}}, {"type": "Feature", "geometry": {"type": "Point", "coordinates": [9.2372496, 45.4857943]}, "properties": {"id": 984451714, "feat_type": "way", "quality_categories": "keys_without_wiki", "issue_ids": "[21]", "osm_url": "https://www.openstreetmap.org/way/984451714", "josm_url": "http://127.0.0.1:8111/load_object?new_layer=false&objects=w984451714", "id_url": "https://www.openstreetmap.org/edit?editor=id&way=984451714#map=20/45.4857943/9.2372496"}}, {"type": "Feature", "geometry": {"type": "Point", "coordinates": [9.2374004, 45.4856291]}, "properties": {"id": 984451715, "feat_type": "way", "quality_categories": "keys_without_wiki", "issue_ids": "[21]", "osm_url": "https://www.openstreetmap.org/way/984451715", "josm_url": "http://127.0.0.1:8111/load_object?new_layer=false&objects=w984451715", "id_url": "https://www.openstreetmap.org/edit?editor=id&way=984451715#map=20/45.4856291/9.2374004"}}, {"type": "Feature", "geometry": {"type": "Point", "coordinates": [9.2377342, 45.4851986]}, "properties": {"id": 984451716, "feat_type": "way", "quality_categories": "keys_without_wiki, missing_tags", "issue_ids": "[21, 7]", "osm_url": "https://www.openstreetmap.org/way/984451716", "josm_url": "http://127.0.0.1:8111/load_object?new_layer=false&objects=w984451716", "id_url": "https://www.openstreetmap.org/edit?editor=id&way=984451716#map=20/45.4851986/9.2377342"}}, {"type": "Feature", "geometry": {"type": "Point", "coordinates": [9.2378973, 45.4850408]}, "properties": {"id": 984451717, "feat_type": "way", "quality_categories": "keys_without_wiki, missing_tags", "issue_ids": "[21, 7]", "osm_url": "https://www.openstreetmap.org/way/984451717", "josm_url": "http://127.0.0.1:8111/load_object?new_layer=false&objects=w984451717", "id_url": "https://www.openstreetmap.org/edit?editor=id&way=984451717#map=20/45.4850408/9.2378973"}}, {"type": "Feature", "geometry": {"type": "Point", "coordinates": [9.1975073, 45.4563461]}, "properties": {"id": 986594005, "feat_type": "way", "quality_categories": "keys_without_wiki", "issue_ids": "[2]", "osm_url": "https://www.openstreetmap.org/way/986594005", "josm_url": "http://127.0.0.1:8111/load_object?new_layer=false&objects=w986594005", "id_url": "https://www.openstreetmap.org/edit?editor=id&way=986594005#map=20/45.4563461/9.1975073"}}, {"type": "Feature", "geometry": {"type": "Point", "coordinates": [9.1803863, 45.4532978]}, "properties": {"id": 1014320555, "feat_type": "way", "quality_categories": "keys_without_wiki", "issue_ids": "[2]", "osm_url": "https://www.openstreetmap.org/way/1014320555", "josm_url": "http://127.0.0.1:8111/load_object?new_layer=false&objects=w1014320555", "id_url": "https://www.openstreetmap.org/edit?editor=id&way=1014320555#map=20/45.4532978/9.1803863"}}, {"type": "Feature", "geometry": {"type": "Point", "coordinates": [9.196808, 45.4562049]}, "properties": {"id": 1027033824, "feat_type": "way", "quality_categories": "keys_without_wiki", "issue_ids": "[11]", "osm_url": "https://www.openstreetmap.org/way/1027033824", "josm_url": "http://127.0.0.1:8111/load_object?new_layer=false&objects=w1027033824", "id_url": "https://www.openstreetmap.org/edit?editor=id&way=1027033824#map=20/45.4562049/9.196808"}}, {"type": "Feature", "geometry": {"type": "Point", "coordinates": [9.1826344, 45.4679695]}, "properties": {"id": 1029875820, "feat_type": "way", "quality_categories": "keys_without_wiki", "issue_ids": "[0]", "osm_url": "https://www.openstreetmap.org/way/1029875820", "josm_url": "http://127.0.0.1:8111/load_object?new_layer=false&objects=w1029875820", "id_url": "https://www.openstreetmap.org/edit?editor=id&way=1029875820#map=20/45.4679695/9.1826344"}}, {"type": "Feature", "geometry": {"type": "Point", "coordinates": [9.1868146, 45.4653668]}, "properties": {"id": 1030695439, "feat_type": "way", "quality_categories": "keys_without_wiki", "issue_ids": "[0]", "osm_url": "https://www.openstreetmap.org/way/1030695439", "josm_url": "http://127.0.0.1:8111/load_object?new_layer=false&objects=w1030695439", "id_url": "https://www.openstreetmap.org/edit?editor=id&way=1030695439#map=20/45.4653668/9.1868146"}}, {"type": "Feature", "geometry": {"type": "Point", "coordinates": [9.1679517, 45.4502238]}, "properties": {"id": 1083716125, "feat_type": "way", "quality_categories": "keys_without_wiki", "issue_ids": "[2]", "osm_url": "https://www.openstreetmap.org/way/1083716125", "josm_url": "http://127.0.0.1:8111/load_object?new_layer=false&objects=w1083716125", "id_url": "https://www.openstreetmap.org/edit?editor=id&way=1083716125#map=20/45.4502238/9.1679517"}}, {"type": "Feature", "geometry": {"type": "Point", "coordinates": [9.1695334, 45.4505596]}, "properties": {"id": 1083716126, "feat_type": "way", "quality_categories": "keys_without_wiki", "issue_ids": "[2]", "osm_url": "https://www.openstreetmap.org/way/1083716126", "josm_url": "http://127.0.0.1:8111/load_object?new_layer=false&objects=w1083716126", "id_url": "https://www.openstreetmap.org/edit?editor=id&way=1083716126#map=20/45.4505596/9.1695334"}}, {"type": "Feature", "geometry": {"type": "Point", "coordinates": [9.1891487, 45.4786213]}, "properties": {"id": 1087323746, "feat_type": "way", "quality_categories": "keys_without_wiki", "issue_ids": "[0]", "osm_url": "https://www.openstreetmap.org/way/1087323746", "josm_url": "http://127.0.0.1:8111/load_object?new_layer=false&objects=w1087323746", "id_url": "https://www.openstreetmap.org/edit?editor=id&way=1087323746#map=20/45.4786213/9.1891487"}}, {"type": "Feature", "geometry": {"type": "Point", "coordinates": [9.2301826, 45.4793624]}, "properties": {"id": 1092121484, "feat_type": "way", "quality_categories": "keys_without_wiki", "issue_ids": "[11]", "osm_url": "https://www.openstreetmap.org/way/1092121484", "josm_url": "http://127.0.0.1:8111/load_object?new_layer=false&objects=w1092121484", "id_url": "https://www.openstreetmap.org/edit?editor=id&way=1092121484#map=20/45.4793624/9.2301826"}}, {"type": "Feature", "geometry": {"type": "Point", "coordinates": [9.1748698, 45.5235263]}, "properties": {"id": 1118885332, "feat_type": "way", "quality_categories": "keys_without_wiki, missing_tags", "issue_ids": "[0, 7]", "osm_url": "https://www.openstreetmap.org/way/1118885332", "josm_url": "http://127.0.0.1:8111/load_object?new_layer=false&objects=w1118885332", "id_url": "https://www.openstreetmap.org/edit?editor=id&way=1118885332#map=20/45.5235263/9.1748698"}}, {"type": "Feature", "geometry": {"type": "Point", "coordinates": [9.183646, 45.473411]}, "properties": {"id": 1158391850, "feat_type": "way", "quality_categories": "keys_without_wiki", "issue_ids": "[0]", "osm_url": "https://www.openstreetmap.org/way/1158391850", "josm_url": "http://127.0.0.1:8111/load_object?new_layer=false&objects=w1158391850", "id_url": "https://www.openstreetmap.org/edit?editor=id&way=1158391850#map=20/45.473411/9.183646"}}, {"type": "Feature", "geometry": {"type": "Point", "coordinates": [9.1282242, 45.5105802]}, "properties": {"id": 1188928756, "feat_type": "way", "quality_categories": "keys_without_wiki", "issue_ids": "[22]", "osm_url": "https://www.openstreetmap.org/way/1188928756", "josm_url": "http://127.0.0.1:8111/load_object?new_layer=false&objects=w1188928756", "id_url": "https://www.openstreetmap.org/edit?editor=id&way=1188928756#map=20/45.5105802/9.1282242"}}, {"type": "Feature", "geometry": {"type": "Point", "coordinates": [9.1850024, 45.4610865]}, "properties": {"id": 1191244696, "feat_type": "way", "quality_categories": "keys_without_wiki", "issue_ids": "[2]", "osm_url": "https://www.openstreetmap.org/way/1191244696", "josm_url": "http://127.0.0.1:8111/load_object?new_layer=false&objects=w1191244696", "id_url": "https://www.openstreetmap.org/edit?editor=id&way=1191244696#map=20/45.4610865/9.1850024"}}, {"type": "Feature", "geometry": {"type": "Point", "coordinates": [9.188246, 45.4648046]}, "properties": {"id": 1261410656, "feat_type": "way", "quality_categories": "keys_without_wiki", "issue_ids": "[0]", "osm_url": "https://www.openstreetmap.org/way/1261410656", "josm_url": "http://127.0.0.1:8111/load_object?new_layer=false&objects=w1261410656", "id_url": "https://www.openstreetmap.org/edit?editor=id&way=1261410656#map=20/45.4648046/9.188246"}}, {"type": "Feature", "geometry": {"type": "Point", "coordinates": [9.1884072, 45.4675045]}, "properties": {"id": 1446734713, "feat_type": "way", "quality_categories": "keys_without_wiki", "issue_ids": "[2]", "osm_url": "https://www.openstreetmap.org/way/1446734713", "josm_url": "http://127.0.0.1:8111/load_object?new_layer=false&objects=w1446734713", "id_url": "https://www.openstreetmap.org/edit?editor=id&way=1446734713#map=20/45.4675045/9.1884072"}}, {"type": "Feature", "geometry": {"type": "Point", "coordinates": [9.1715364, 45.4757624]}, "properties": {"id": 1474194426, "feat_type": "way", "quality_categories": "keys_without_wiki", "issue_ids": "[2]", "osm_url": "https://www.openstreetmap.org/way/1474194426", "josm_url": "http://127.0.0.1:8111/load_object?new_layer=false&objects=w1474194426", "id_url": "https://www.openstreetmap.org/edit?editor=id&way=1474194426#map=20/45.4757624/9.1715364"}}, {"type": "Feature", "geometry": {"type": "Point", "coordinates": [9.2010391, 45.4726366]}, "properties": {"id": 1498838444, "feat_type": "way", "quality_categories": "keys_without_wiki", "issue_ids": "[23]", "osm_url": "https://www.openstreetmap.org/way/1498838444", "josm_url": "http://127.0.0.1:8111/load_object?new_layer=false&objects=w1498838444", "id_url": "https://www.openstreetmap.org/edit?editor=id&way=1498838444#map=20/45.4726366/9.2010391"}}, {"type": "Feature", "geometry": {"type": "Point", "coordinates": [9.2012973, 45.4725545]}, "properties": {"id": 1498838447, "feat_type": "way", "quality_categories": "keys_without_wiki", "issue_ids": "[23]", "osm_url": "https://www.openstreetmap.org/way/1498838447", "josm_url": "http://127.0.0.1:8111/load_object?new_layer=false&objects=w1498838447", "id_url": "https://www.openstreetmap.org/edit?editor=id&way=1498838447#map=20/45.4725545/9.2012973"}}, {"type": "Feature", "geometry": {"type": "Point", "coordinates": [9.1889216, 45.472998]}, "properties": {"id": 1498965905, "feat_type": "way", "quality_categories": "keys_without_wiki", "issue_ids": "[23]", "osm_url": "https://www.openstreetmap.org/way/1498965905", "josm_url": "http://127.0.0.1:8111/load_object?new_layer=false&objects=w1498965905", "id_url": "https://www.openstreetmap.org/edit?editor=id&way=1498965905#map=20/45.472998/9.1889216"}}, {"type": "Feature", "geometry": {"type": "Point", "coordinates": [9.1898295, 45.4796282]}, "properties": {"id": 1516687285, "feat_type": "way", "quality_categories": "keys_without_wiki", "issue_ids": "[0]", "osm_url": "https://www.openstreetmap.org/way/1516687285", "josm_url": "http://127.0.0.1:8111/load_object?new_layer=false&objects=w1516687285", "id_url": "https://www.openstreetmap.org/edit?editor=id&way=1516687285#map=20/45.4796282/9.1898295"}}, {"type": "Feature", "geometry": {"type": "Point", "coordinates": [9.1381418, 45.4654446]}, "properties": {"id": 1553300006, "feat_type": "way", "quality_categories": "keys_without_wiki", "issue_ids": "[23]", "osm_url": "https://www.openstreetmap.org/way/1553300006", "josm_url": "http://127.0.0.1:8111/load_object?new_layer=false&objects=w1553300006", "id_url": "https://www.openstreetmap.org/edit?editor=id&way=1553300006#map=20/45.4654446/9.1381418"}}]}